( pcb2gcode 2.5.0 )
( Software-independent Gcode )

G94 ( Millimeters per minute feed rate. )
G21 ( Units == Millimeters. )

G90 ( Absolute coordinates. )
G00 S20000 ( RPM spindle speed. )
G01 F200.00000 ( Feedrate. )


G00 Z10.00000 (Retract to tool change height)
T0
M5      (Spindle stop.)
G04 P1.00000 (Wait for spindle to stop)
(MSG, Change tool bit to mill diameter 0.20000mm)
M0      (Temporary machine stop.)
M3 ( Spindle on clockwise. )
G04 P1.00000 (Wait for spindle to get up to speed)
G04 P0 ( dwell for no time -- G64 should not smooth over this point )
G00 Z4.00000 ( retract )

G00 X26.16231 Y4.28157 ( rapid move to begin. )
G01 F50.00000
( Mill infeed pass 1/1 )
G01 Z1.95000
G04 P0 ( dwell for no time -- G64 should not smooth over this point )
G01 F200.00000
G01 X26.16231 Y4.28157
G01 X26.16993 Y4.24331
G01 X26.19160 Y4.21088
G01 X26.20676 Y4.19843
G01 X26.24281 Y4.18350
G01 X26.83811 Y4.18157
G01 X29.91829 Y1.10141
G01 X29.96375 Y1.06410
G01 X30.02484 Y1.03306
G01 X30.07188 Y1.01929
G01 X30.13043 Y1.01353
G01 X31.96388 Y1.01353
G01 X31.96581 Y0.50662
G01 X31.98074 Y0.47058
G01 X31.99319 Y0.45544
G01 X32.00833 Y0.44299
G01 X32.04437 Y0.42806
G01 X33.65821 Y0.42806
G01 X33.69425 Y0.44299
G01 X33.70939 Y0.45544
G01 X33.72184 Y0.47058
G01 X33.73677 Y0.50662
G01 X33.73870 Y0.75953
G01 X40.21730 Y0.75953
G01 X40.26612 Y0.76387
G01 X40.33209 Y0.78239
G01 X40.39185 Y0.81594
G01 X40.42942 Y0.84741
G01 X40.46089 Y0.88498
G01 X40.49777 Y0.95396
G01 X40.51154 Y1.00100
G01 X40.51730 Y1.05955
G01 X40.51730 Y1.51053
G01 X40.66729 Y1.51053
G01 X40.70557 Y1.51815
G01 X40.72284 Y1.52739
G01 X40.75045 Y1.55498
G01 X40.76536 Y1.59102
G01 X40.76536 Y2.43006
G01 X40.75045 Y2.46610
G01 X40.72284 Y2.49369
G01 X40.70557 Y2.50293
G01 X40.66729 Y2.51053
G01 X39.76729 Y2.51053
G01 X39.72901 Y2.50293
G01 X39.71174 Y2.49369
G01 X39.68413 Y2.46610
G01 X39.66922 Y2.43006
G01 X39.66729 Y2.41053
G01 X39.66922 Y1.59102
G01 X39.68413 Y1.55498
G01 X39.71174 Y1.52739
G01 X39.72901 Y1.51815
G01 X39.76729 Y1.51053
G01 X39.91728 Y1.51053
G01 X39.91728 Y1.35955
G01 X33.73870 Y1.35955
G01 X33.73677 Y2.12046
G01 X33.72184 Y2.15650
G01 X33.69425 Y2.18409
G01 X33.67695 Y2.19333
G01 X33.63870 Y2.20095
G01 X32.06390 Y2.20095
G01 X32.02562 Y2.19333
G01 X32.00833 Y2.18409
G01 X31.98074 Y2.15650
G01 X31.96581 Y2.12046
G01 X31.96388 Y1.61355
G01 X30.25469 Y1.61355
G01 X27.36231 Y4.50590
G01 X27.36231 Y5.08159
G01 X27.35472 Y5.11984
G01 X27.34547 Y5.13714
G01 X27.31789 Y5.16473
G01 X27.30059 Y5.17397
G01 X27.26231 Y5.18159
G01 X26.26231 Y5.18159
G01 X26.22406 Y5.17397
G01 X26.20676 Y5.16473
G01 X26.17918 Y5.13714
G01 X26.16993 Y5.11984
G01 X26.16231 Y5.08159
G01 X26.16231 Y4.28157
G01 X26.16229 Y6.98159
G01 X26.16991 Y7.01986
G01 X26.17915 Y7.03716
G01 X26.20674 Y7.06475
G01 X26.24278 Y7.07968
G01 X26.26229 Y7.08159
G01 X27.26231 Y7.08159
G01 X27.30056 Y7.07399
G01 X27.33300 Y7.05230
G01 X27.35469 Y7.01986
G01 X27.36231 Y6.98159
G01 X27.36231 Y6.18159
G01 X27.35469 Y6.14334
G01 X27.34545 Y6.12604
G01 X27.31786 Y6.09845
G01 X27.30056 Y6.08921
G01 X27.26231 Y6.08159
G01 X26.26229 Y6.08159
G01 X26.22404 Y6.08921
G01 X26.19160 Y6.11090
G01 X26.16991 Y6.14334
G01 X26.16229 Y6.18159
G04 P0 ( dwell for no time -- G64 should not smooth over this point )
G00 Z4.00000 ( retract )

G00 X15.09927 Y5.04347 ( rapid move to begin. )
G01 F50.00000
( Mill infeed pass 1/1 )
G01 Z1.95000
G04 P0 ( dwell for no time -- G64 should not smooth over this point )
G01 F200.00000
G01 X15.09927 Y5.04347
G01 X15.09927 Y5.84346
G01 X15.10689 Y5.88174
G01 X15.12855 Y5.91418
G01 X15.14372 Y5.92662
G01 X15.16099 Y5.93587
G01 X15.19927 Y5.94346
G01 X16.19927 Y5.94346
G01 X16.23754 Y5.93587
G01 X16.26998 Y5.91418
G01 X16.28243 Y5.89901
G01 X16.29736 Y5.86297
G01 X16.29927 Y5.84346
G01 X16.29927 Y5.04347
G01 X16.29736 Y5.02396
G01 X16.28243 Y4.98792
G01 X16.25482 Y4.96033
G01 X16.23754 Y4.95109
G01 X16.19927 Y4.94347
G01 X15.19927 Y4.94347
G01 X15.16099 Y4.95109
G01 X15.12855 Y4.97275
G01 X15.10689 Y5.00521
G01 X15.09927 Y5.04347
G04 P0 ( dwell for no time -- G64 should not smooth over this point )
G00 Z4.00000 ( retract )

G00 X25.35988 Y15.63915 ( rapid move to begin. )
G01 F50.00000
( Mill infeed pass 1/1 )
G01 Z1.95000
G04 P0 ( dwell for no time -- G64 should not smooth over this point )
G01 F200.00000
G01 X25.35988 Y15.63915
G01 X25.36181 Y15.61962
G01 X25.37674 Y15.58358
G01 X25.40433 Y15.55599
G01 X25.44037 Y15.54106
G01 X25.94728 Y15.53913
G01 X25.94728 Y12.91254
G01 X25.63877 Y12.91061
G01 X25.60273 Y12.89570
G01 X25.58756 Y12.88325
G01 X25.56590 Y12.85082
G01 X25.55828 Y12.81254
G01 X25.56021 Y11.89303
G01 X25.56590 Y11.87426
G01 X25.58756 Y11.84183
G01 X25.62002 Y11.82016
G01 X25.65828 Y11.81254
G01 X26.47778 Y11.81447
G01 X26.51382 Y11.82938
G01 X26.52899 Y11.84183
G01 X26.55068 Y11.87426
G01 X26.55827 Y11.91254
G01 X26.55827 Y12.81254
G01 X26.55637 Y12.83205
G01 X26.54730 Y12.85712
G01 X26.54730 Y15.53913
G01 X27.05421 Y15.54106
G01 X27.09025 Y15.55599
G01 X27.11784 Y15.58358
G01 X27.13277 Y15.61962
G01 X27.13470 Y15.63915
G01 X27.13277 Y17.23346
G01 X27.11784 Y17.26950
G01 X27.10539 Y17.28464
G01 X27.09025 Y17.29709
G01 X27.05421 Y17.31202
G01 X26.68139 Y17.31395
G01 X26.68139 Y25.77157
G01 X26.90082 Y25.77350
G01 X26.91959 Y25.77919
G01 X26.95203 Y25.80085
G01 X26.97372 Y25.83329
G01 X26.97941 Y25.85206
G01 X26.98131 Y26.67157
G01 X26.97372 Y26.70984
G01 X26.95203 Y26.74228
G01 X26.93689 Y26.75473
G01 X26.90082 Y26.76963
G01 X25.88131 Y26.77157
G01 X25.84306 Y26.76395
G01 X25.81060 Y26.74228
G01 X25.78893 Y26.70984
G01 X25.78324 Y26.69107
G01 X25.78131 Y25.87157
G01 X25.78893 Y25.83329
G01 X25.81060 Y25.80085
G01 X25.84306 Y25.77919
G01 X25.86181 Y25.77350
G01 X26.08136 Y25.77157
G01 X26.08136 Y17.31395
G01 X25.45990 Y17.31395
G01 X25.44037 Y17.31202
G01 X25.40433 Y17.29709
G01 X25.37674 Y17.26950
G01 X25.36750 Y17.25220
G01 X25.35988 Y17.21395
G01 X25.35988 Y15.63915
G04 P0 ( dwell for no time -- G64 should not smooth over this point )
G00 Z4.00000 ( retract )

G00 X18.65428 Y18.96655 ( rapid move to begin. )
G01 F50.00000
( Mill infeed pass 1/1 )
G01 Z1.95000
G04 P0 ( dwell for no time -- G64 should not smooth over this point )
G01 F200.00000
G01 X18.65428 Y18.96655
G01 X18.65428 Y20.87155
G01 X18.66190 Y20.90980
G01 X18.67114 Y20.92710
G01 X18.69873 Y20.95469
G01 X18.73477 Y20.96962
G01 X20.53230 Y20.97155
G01 X20.57055 Y20.96393
G01 X20.58785 Y20.95469
G01 X20.61544 Y20.92710
G01 X20.62468 Y20.90980
G01 X20.63230 Y20.87155
G01 X20.63230 Y20.15555
G01 X23.70730 Y20.15555
G01 X23.77532 Y20.14740
G01 X23.82209 Y20.13269
G01 X23.86554 Y20.11003
G01 X23.91942 Y20.06767
G01 X23.95673 Y20.02220
G01 X23.98777 Y19.96111
G01 X24.00154 Y19.91407
G01 X24.00730 Y19.85555
G01 X24.00730 Y17.25962
G01 X24.15099 Y17.19505
G01 X24.29295 Y17.09259
G01 X24.42521 Y16.94814
G01 X24.52173 Y16.77771
G01 X24.57530 Y16.61103
G01 X24.59470 Y16.42655
G01 X24.57530 Y16.24205
G01 X24.52173 Y16.07537
G01 X24.42521 Y15.90494
G01 X24.29295 Y15.76049
G01 X24.15099 Y15.65802
G01 X24.00730 Y15.59346
G01 X24.00730 Y12.66255
G01 X24.15828 Y12.66255
G01 X24.15828 Y12.81254
G01 X24.16590 Y12.85082
G01 X24.17515 Y12.86809
G01 X24.20273 Y12.89570
G01 X24.23877 Y12.91061
G01 X25.05828 Y12.91254
G01 X25.07781 Y12.91061
G01 X25.11385 Y12.89570
G01 X25.14144 Y12.86809
G01 X25.15068 Y12.85082
G01 X25.15828 Y12.81254
G01 X25.15637 Y11.89303
G01 X25.15068 Y11.87426
G01 X25.12899 Y11.84183
G01 X25.09656 Y11.82016
G01 X25.05828 Y11.81254
G01 X24.95830 Y11.81254
G01 X24.95830 Y9.99311
G01 X33.56728 Y9.92283
G01 X33.56728 Y30.47753
G01 X30.25334 Y30.47753
G01 X30.22822 Y30.40727
G01 X30.13363 Y30.24781
G01 X30.01608 Y30.11807
G01 X29.86599 Y30.00902
G01 X29.69652 Y29.93356
G01 X29.52538 Y29.89663
G01 X29.32954 Y29.89500
G01 X29.14806 Y29.93356
G01 X28.97859 Y30.00902
G01 X28.82850 Y30.11807
G01 X28.70437 Y30.25594
G01 X28.61161 Y30.41659
G01 X28.55428 Y30.59305
G01 X28.53488 Y30.77755
G01 X28.55428 Y30.96203
G01 X28.61636 Y31.14781
G01 X28.70437 Y31.29914
G01 X28.82850 Y31.43701
G01 X28.98791 Y31.55080
G01 X29.14806 Y31.62152
G01 X29.32954 Y31.66007
G01 X29.52538 Y31.65845
G01 X29.69652 Y31.62152
G01 X29.86599 Y31.54605
G01 X30.01608 Y31.43701
G01 X30.13363 Y31.30727
G01 X30.22822 Y31.14781
G01 X30.25334 Y31.07755
G01 X33.31729 Y31.07755
G01 X33.31922 Y31.76706
G01 X33.33413 Y31.80310
G01 X33.36174 Y31.83069
G01 X33.37901 Y31.83993
G01 X33.41729 Y31.84753
G01 X34.33680 Y31.84562
G01 X34.35557 Y31.83993
G01 X34.38800 Y31.81824
G01 X34.40967 Y31.78580
G01 X34.41729 Y31.74753
G01 X34.41729 Y31.64649
G01 X40.67928 Y31.64649
G01 X40.67928 Y38.66646
G01 X35.81429 Y38.66646
G01 X35.81236 Y38.54802
G01 X35.79745 Y38.51198
G01 X35.76984 Y38.48439
G01 X35.75257 Y38.47515
G01 X35.71429 Y38.46753
G01 X35.50014 Y38.46753
G01 X35.47642 Y38.43941
G01 X35.43885 Y38.40794
G01 X35.38798 Y38.37858
G01 X35.32282 Y38.35729
G01 X35.27408 Y38.35201
G01 X32.03134 Y38.35153
G01 X32.00622 Y38.28127
G01 X31.91821 Y38.12994
G01 X31.78595 Y37.98549
G01 X31.64399 Y37.88302
G01 X31.48427 Y37.81132
G01 X31.29304 Y37.76900
G01 X31.10754 Y37.76900
G01 X30.92606 Y37.80756
G01 X30.75659 Y37.88302
G01 X30.61463 Y37.98549
G01 X30.48237 Y38.12994
G01 X30.38585 Y38.30037
G01 X30.33228 Y38.46705
G01 X30.31344 Y38.64109
G01 X30.33500 Y38.84614
G01 X30.38961 Y39.01249
G01 X30.47666 Y39.16435
G01 X30.60650 Y39.31101
G01 X30.76591 Y39.42480
G01 X30.92606 Y39.49552
G01 X31.10754 Y39.53407
G01 X31.30338 Y39.53245
G01 X31.47452 Y39.49552
G01 X31.64399 Y39.42005
G01 X31.79408 Y39.31101
G01 X31.91163 Y39.18127
G01 X32.00622 Y39.02181
G01 X32.03134 Y38.95155
G01 X34.71429 Y38.95155
G01 X34.71622 Y39.38706
G01 X34.73113 Y39.42310
G01 X34.75874 Y39.45069
G01 X34.77601 Y39.45993
G01 X34.81429 Y39.46753
G01 X35.73380 Y39.46562
G01 X35.75257 Y39.45993
G01 X35.78500 Y39.43824
G01 X35.80667 Y39.40580
G01 X35.81429 Y39.36753
G01 X35.81429 Y39.26649
G01 X39.48385 Y39.26649
G01 X39.48385 Y47.11453
G01 X36.95729 Y47.11453
G01 X36.95536 Y46.93002
G01 X36.94045 Y46.89398
G01 X36.92800 Y46.87884
G01 X36.89557 Y46.85710
G01 X36.87680 Y46.85146
G01 X36.70730 Y46.84953
G01 X36.70730 Y46.65255
G01 X36.70154 Y46.59400
G01 X36.68025 Y46.52883
G01 X36.65089 Y46.47798
G01 X36.61215 Y46.43376
G01 X36.57395 Y46.40310
G01 X36.53098 Y46.37953
G01 X36.46582 Y46.35829
G01 X36.41708 Y46.35301
G01 X31.65034 Y46.35253
G01 X31.62997 Y46.29157
G01 X31.53721 Y46.13094
G01 X31.40495 Y45.98649
G01 X31.26299 Y45.88402
G01 X31.10327 Y45.81232
G01 X30.90160 Y45.76944
G01 X30.71620 Y45.77163
G01 X30.54506 Y45.80856
G01 X30.38491 Y45.87927
G01 X30.22550 Y45.99307
G01 X30.10795 Y46.12281
G01 X30.00861 Y46.29157
G01 X29.95128 Y46.46805
G01 X29.93188 Y46.65255
G01 X29.95128 Y46.83703
G01 X30.01336 Y47.02281
G01 X30.10137 Y47.17414
G01 X30.22550 Y47.31201
G01 X30.38491 Y47.42580
G01 X30.54506 Y47.49652
G01 X30.72654 Y47.53507
G01 X30.92238 Y47.53345
G01 X31.09352 Y47.49652
G01 X31.26299 Y47.42103
G01 X31.41308 Y47.31201
G01 X31.53063 Y47.18227
G01 X31.62522 Y47.02281
G01 X31.65034 Y46.95255
G01 X35.85729 Y46.95255
G01 X35.85729 Y47.74953
G01 X35.85922 Y47.76906
G01 X35.87413 Y47.80510
G01 X35.90174 Y47.83269
G01 X35.93778 Y47.84760
G01 X36.87680 Y47.84760
G01 X36.91284 Y47.83269
G01 X36.94045 Y47.80510
G01 X36.95536 Y47.76906
G01 X36.95729 Y47.71445
G01 X39.74067 Y47.71201
G01 X39.77151 Y47.70719
G01 X39.84555 Y47.68181
G01 X39.90956 Y47.63680
G01 X39.99607 Y47.55191
G01 X40.03838 Y47.49812
G01 X40.05685 Y47.46355
G01 X40.07572 Y47.40792
G01 X40.08388 Y47.33993
G01 X40.08388 Y39.26649
G01 X40.97930 Y39.26649
G01 X41.03782 Y39.26072
G01 X41.09409 Y39.24363
G01 X41.13754 Y39.22097
G01 X41.19802 Y39.17134
G01 X41.22873 Y39.13314
G01 X41.25977 Y39.07205
G01 X41.27354 Y39.02501
G01 X41.27882 Y38.97627
G01 X41.27930 Y31.34649
G01 X41.27354 Y31.28794
G01 X41.25977 Y31.24090
G01 X41.23379 Y31.18822
G01 X41.18415 Y31.12774
G01 X41.13754 Y31.09198
G01 X41.09409 Y31.06932
G01 X41.03782 Y31.05223
G01 X40.98908 Y31.04694
G01 X34.41729 Y31.04646
G01 X34.41536 Y30.92802
G01 X34.40045 Y30.89198
G01 X34.37284 Y30.86439
G01 X34.35557 Y30.85515
G01 X34.31729 Y30.84753
G01 X34.16730 Y30.84753
G01 X34.16730 Y9.91793
G01 X40.21974 Y9.86853
G01 X40.28738 Y9.85992
G01 X40.34260 Y9.84076
G01 X40.39305 Y9.81127
G01 X40.43681 Y9.77254
G01 X40.47224 Y9.72606
G01 X40.49797 Y9.67358
G01 X40.51301 Y9.61712
G01 X40.51730 Y9.56855
G01 X40.51730 Y3.91052
G01 X40.66729 Y3.91052
G01 X40.70557 Y3.90293
G01 X40.73800 Y3.88124
G01 X40.75045 Y3.86607
G01 X40.76536 Y3.83003
G01 X40.76729 Y3.01053
G01 X40.76536 Y2.99102
G01 X40.75045 Y2.95498
G01 X40.73800 Y2.93981
G01 X40.70557 Y2.91815
G01 X40.66729 Y2.91053
G01 X39.76729 Y2.91053
G01 X39.72901 Y2.91815
G01 X39.71174 Y2.92739
G01 X39.68413 Y2.95498
G01 X39.66922 Y2.99102
G01 X39.66729 Y3.01053
G01 X39.66729 Y3.80753
G01 X33.73441 Y3.80753
G01 X33.71930 Y3.66905
G01 X33.66573 Y3.50237
G01 X33.57492 Y3.34073
G01 X33.44508 Y3.19407
G01 X33.29499 Y3.08502
G01 X33.11541 Y3.00687
G01 X32.94404 Y2.97100
G01 X32.76898 Y2.97044
G01 X32.57706 Y3.00956
G01 X32.39880 Y3.09074
G01 X32.25750 Y3.19407
G01 X32.13995 Y3.32381
G01 X32.04061 Y3.49259
G01 X31.98163 Y3.67938
G01 X31.96388 Y3.85355
G01 X31.98328 Y4.03803
G01 X32.04536 Y4.22381
G01 X32.13337 Y4.37514
G01 X32.25750 Y4.51301
G01 X32.41691 Y4.62680
G01 X32.57706 Y4.69752
G01 X32.74820 Y4.73445
G01 X32.94404 Y4.73607
G01 X33.13527 Y4.69376
G01 X33.30378 Y4.61634
G01 X33.44554 Y4.51261
G01 X33.53865 Y4.40755
G01 X39.91728 Y4.40755
G01 X39.91728 Y9.27097
G01 X24.65584 Y9.39555
G01 X24.58820 Y9.40416
G01 X24.53298 Y9.42331
G01 X24.49869 Y9.44188
G01 X24.45249 Y9.47770
G01 X24.40334 Y9.53802
G01 X24.37761 Y9.59050
G01 X24.36257 Y9.64696
G01 X24.35876 Y9.68580
G01 X24.35828 Y11.81254
G01 X24.23877 Y11.81447
G01 X24.20273 Y11.82938
G01 X24.17515 Y11.85699
G01 X24.16590 Y11.87426
G01 X24.15828 Y11.91254
G01 X24.15828 Y12.06253
G01 X23.70730 Y12.06253
G01 X23.63926 Y12.07068
G01 X23.59249 Y12.08539
G01 X23.54904 Y12.10804
G01 X23.50243 Y12.14381
G01 X23.45785 Y12.19588
G01 X23.42681 Y12.25696
G01 X23.41304 Y12.30400
G01 X23.40728 Y12.36255
G01 X23.40728 Y15.59346
G01 X23.26359 Y15.65802
G01 X23.12163 Y15.76049
G01 X22.99595 Y15.89681
G01 X22.89661 Y16.06559
G01 X22.83763 Y16.25238
G01 X22.81988 Y16.42655
G01 X22.83763 Y16.60069
G01 X22.90136 Y16.79681
G01 X22.98937 Y16.94814
G01 X23.11350 Y17.08601
G01 X23.26359 Y17.19505
G01 X23.40728 Y17.25962
G01 X23.40728 Y19.55553
G01 X20.63230 Y19.55553
G01 X20.63037 Y18.94702
G01 X20.61544 Y18.91098
G01 X20.60299 Y18.89584
G01 X20.58785 Y18.88339
G01 X20.55181 Y18.86846
G01 X18.75430 Y18.86653
G01 X18.71602 Y18.87415
G01 X18.68359 Y18.89584
G01 X18.66190 Y18.92827
G01 X18.65428 Y18.96655
G04 P0 ( dwell for no time -- G64 should not smooth over this point )
G00 Z4.00000 ( retract )

G00 X14.00128 Y15.72254 ( rapid move to begin. )
G01 F50.00000
( Mill infeed pass 1/1 )
G01 Z1.95000
G04 P0 ( dwell for no time -- G64 should not smooth over this point )
G01 F200.00000
G01 X14.00128 Y15.72254
G01 X14.00890 Y15.68426
G01 X14.03056 Y15.65183
G01 X14.04573 Y15.63938
G01 X14.08177 Y15.62447
G01 X14.92078 Y15.62447
G01 X14.95682 Y15.63938
G01 X14.97199 Y15.65183
G01 X14.99368 Y15.68426
G01 X15.00127 Y15.72254
G01 X15.00127 Y15.87253
G01 X15.15228 Y15.87253
G01 X15.15228 Y12.36095
G01 X14.64537 Y12.35902
G01 X14.60933 Y12.34409
G01 X14.58174 Y12.31650
G01 X14.57250 Y12.29920
G01 X14.56488 Y12.26095
G01 X14.56681 Y10.66662
G01 X14.58174 Y10.63058
G01 X14.59419 Y10.61544
G01 X14.60933 Y10.60299
G01 X14.64537 Y10.58806
G01 X15.15228 Y10.58613
G01 X15.15228 Y7.83124
G01 X15.12853 Y7.81420
G01 X15.11611 Y7.79906
G01 X15.10686 Y7.78176
G01 X15.09924 Y7.74351
G01 X15.09924 Y6.94349
G01 X15.10686 Y6.90523
G01 X15.12853 Y6.87280
G01 X15.14369 Y6.86035
G01 X15.16099 Y6.85111
G01 X15.19924 Y6.84349
G01 X16.21875 Y6.84542
G01 X16.25482 Y6.86035
G01 X16.28240 Y6.88794
G01 X16.29734 Y6.92398
G01 X16.29924 Y6.94349
G01 X16.29924 Y7.74351
G01 X16.29165 Y7.78176
G01 X16.28240 Y7.79906
G01 X16.25482 Y7.82665
G01 X16.21875 Y7.84158
G01 X15.75230 Y7.84351
G01 X15.75230 Y10.58613
G01 X16.25921 Y10.58806
G01 X16.29525 Y10.60299
G01 X16.32284 Y10.63058
G01 X16.33208 Y10.64787
G01 X16.33970 Y10.68613
G01 X16.33970 Y12.26095
G01 X16.33208 Y12.29920
G01 X16.32284 Y12.31650
G01 X16.29525 Y12.34409
G01 X16.25921 Y12.35902
G01 X15.75230 Y12.36095
G01 X15.75230 Y16.17255
G01 X15.74654 Y16.23107
G01 X15.73277 Y16.27811
G01 X15.70173 Y16.33920
G01 X15.65715 Y16.39127
G01 X15.61054 Y16.42703
G01 X15.56709 Y16.44969
G01 X15.52032 Y16.46440
G01 X15.45230 Y16.47255
G01 X15.00127 Y16.47255
G01 X15.00127 Y16.62254
G01 X14.99368 Y16.66082
G01 X14.97199 Y16.69325
G01 X14.95682 Y16.70570
G01 X14.92078 Y16.72061
G01 X14.10128 Y16.72254
G01 X14.06302 Y16.71492
G01 X14.04573 Y16.70570
G01 X14.01814 Y16.67809
G01 X14.00890 Y16.66082
G01 X14.00128 Y16.62254
G01 X14.00128 Y15.72254
G04 P0 ( dwell for no time -- G64 should not smooth over this point )
G00 Z4.00000 ( retract )

G00 X2.37288 Y10.17813 ( rapid move to begin. )
G01 F50.00000
( Mill infeed pass 1/1 )
G01 Z1.95000
G04 P0 ( dwell for no time -- G64 should not smooth over this point )
G01 F200.00000
G01 X2.37288 Y10.17813
G01 X2.37288 Y11.75295
G01 X2.38050 Y11.79120
G01 X2.38974 Y11.80850
G01 X2.41733 Y11.83609
G01 X2.45337 Y11.85102
G01 X2.96028 Y11.85295
G01 X2.96028 Y15.99257
G01 X2.62081 Y15.99450
G01 X2.60206 Y16.00019
G01 X2.56960 Y16.02185
G01 X2.54793 Y16.05429
G01 X2.54031 Y16.09257
G01 X2.54224 Y16.91207
G01 X2.54793 Y16.93084
G01 X2.56960 Y16.96328
G01 X2.60206 Y16.98495
G01 X2.64031 Y16.99257
G01 X3.65982 Y16.99063
G01 X3.69589 Y16.97573
G01 X3.71103 Y16.96328
G01 X3.73272 Y16.93084
G01 X3.74031 Y16.89257
G01 X3.74031 Y16.09257
G01 X3.73272 Y16.05429
G01 X3.71103 Y16.02185
G01 X3.69589 Y16.00943
G01 X3.65982 Y15.99450
G01 X3.56030 Y15.99257
G01 X3.56030 Y11.85295
G01 X4.06721 Y11.85102
G01 X4.10325 Y11.83609
G01 X4.13084 Y11.80850
G01 X4.14008 Y11.79120
G01 X4.14770 Y11.75295
G01 X4.14770 Y10.17813
G01 X4.14008 Y10.13987
G01 X4.13084 Y10.12258
G01 X4.10325 Y10.09499
G01 X4.06721 Y10.08006
G01 X3.56030 Y10.07813
G01 X3.56030 Y6.05454
G01 X4.23028 Y6.05454
G01 X4.24981 Y6.05261
G01 X4.28585 Y6.03770
G01 X4.31344 Y6.01009
G01 X4.32268 Y5.99282
G01 X4.33028 Y5.95454
G01 X4.33028 Y5.05454
G01 X4.32268 Y5.01626
G01 X4.31344 Y4.99899
G01 X4.28585 Y4.97138
G01 X4.26856 Y4.96216
G01 X4.23028 Y4.95454
G01 X3.43028 Y4.95454
G01 X3.39203 Y4.96216
G01 X3.35959 Y4.98383
G01 X3.33790 Y5.01626
G01 X3.33221 Y5.03503
G01 X3.33028 Y5.20453
G01 X3.26030 Y5.20453
G01 X3.20176 Y5.21029
G01 X3.14549 Y5.22739
G01 X3.10204 Y5.25004
G01 X3.04156 Y5.29968
G01 X3.01085 Y5.33788
G01 X2.97981 Y5.39896
G01 X2.96604 Y5.44600
G01 X2.96028 Y5.50455
G01 X2.96028 Y10.07813
G01 X2.45337 Y10.08006
G01 X2.41733 Y10.09499
G01 X2.38974 Y10.12258
G01 X2.38050 Y10.13987
G01 X2.37288 Y10.17813
G04 P0 ( dwell for no time -- G64 should not smooth over this point )
G00 Z4.00000 ( retract )

G00 X0.24029 Y17.04253 ( rapid move to begin. )
G01 F50.00000
( Mill infeed pass 1/1 )
G01 Z1.95000
G04 P0 ( dwell for no time -- G64 should not smooth over this point )
G01 F200.00000
G01 X0.24029 Y17.04253
G01 X0.24029 Y17.84255
G01 X0.24791 Y17.88080
G01 X0.26958 Y17.91324
G01 X0.28474 Y17.92569
G01 X0.32079 Y17.94062
G01 X0.54011 Y17.94255
G01 X0.54011 Y33.57953
G01 X0.34029 Y33.57953
G01 X0.30204 Y33.58715
G01 X0.28474 Y33.59639
G01 X0.25716 Y33.62398
G01 X0.24791 Y33.64127
G01 X0.24029 Y33.67953
G01 X0.24029 Y34.47955
G01 X0.24791 Y34.51780
G01 X0.26958 Y34.55024
G01 X0.28474 Y34.56269
G01 X0.32079 Y34.57762
G01 X0.53305 Y34.57955
G01 X0.42033 Y42.58431
G01 X0.42317 Y42.62820
G01 X0.44055 Y42.69622
G01 X0.46374 Y42.74357
G01 X0.49488 Y42.78611
G01 X0.53298 Y42.82254
G01 X0.57687 Y42.85175
G01 X0.62518 Y42.87280
G01 X0.65914 Y42.88197
G01 X0.72030 Y42.88855
G01 X2.22030 Y42.88855
G01 X2.22220 Y43.00265
G01 X2.23714 Y43.03872
G01 X2.24959 Y43.05385
G01 X2.26472 Y43.06630
G01 X2.30079 Y43.08124
G01 X2.45228 Y43.08314
G01 X2.45228 Y45.26904
G01 X2.32030 Y45.26904
G01 X2.28202 Y45.27666
G01 X2.24959 Y45.29833
G01 X2.22789 Y45.33076
G01 X2.22220 Y45.34953
G01 X2.22220 Y46.19505
G01 X2.22789 Y46.21377
G01 X2.24959 Y46.24623
G01 X2.28202 Y46.26792
G01 X2.32030 Y46.27554
G01 X3.20379 Y46.27361
G01 X3.22256 Y46.26792
G01 X3.25499 Y46.24623
G01 X3.27669 Y46.21377
G01 X3.28428 Y46.17551
G01 X3.28428 Y45.36904
G01 X3.27669 Y45.33076
G01 X3.26744 Y45.31349
G01 X3.25499 Y45.29833
G01 X3.22256 Y45.27666
G01 X3.18428 Y45.26904
G01 X3.05230 Y45.26904
G01 X3.05230 Y43.08314
G01 X3.18428 Y43.08314
G01 X3.22256 Y43.07555
G01 X3.23986 Y43.06630
G01 X3.26744 Y43.03872
G01 X3.28238 Y43.00265
G01 X3.28428 Y42.17664
G01 X3.28238 Y42.15713
G01 X3.26744 Y42.12109
G01 X3.23986 Y42.09351
G01 X3.22256 Y42.08426
G01 X3.18428 Y42.07664
G01 X2.32030 Y42.07664
G01 X2.28202 Y42.08426
G01 X2.26472 Y42.09351
G01 X2.23714 Y42.12109
G01 X2.22789 Y42.13839
G01 X2.22030 Y42.17664
G01 X2.22030 Y42.28853
G01 X1.02454 Y42.28853
G01 X1.13310 Y34.57955
G01 X1.34029 Y34.57955
G01 X1.37857 Y34.57193
G01 X1.39587 Y34.56269
G01 X1.42345 Y34.53510
G01 X1.43839 Y34.49906
G01 X1.44029 Y34.47955
G01 X1.44029 Y33.67953
G01 X1.43270 Y33.64127
G01 X1.42345 Y33.62398
G01 X1.39587 Y33.59639
G01 X1.35980 Y33.58146
G01 X1.14014 Y33.57953
G01 X1.14014 Y17.94255
G01 X1.34029 Y17.94255
G01 X1.37857 Y17.93493
G01 X1.39587 Y17.92569
G01 X1.42345 Y17.89810
G01 X1.43839 Y17.86206
G01 X1.44029 Y17.84255
G01 X1.44029 Y17.04253
G01 X1.43270 Y17.00427
G01 X1.42345 Y16.98698
G01 X1.39587 Y16.95939
G01 X1.35980 Y16.94446
G01 X1.14730 Y16.94253
G01 X1.14730 Y1.86534
G01 X17.69934 Y1.74362
G01 X17.69934 Y5.89353
G01 X17.47976 Y5.89546
G01 X17.44369 Y5.91039
G01 X17.41613 Y5.93798
G01 X17.40688 Y5.95527
G01 X17.39926 Y5.99353
G01 X17.39926 Y6.79355
G01 X17.40688 Y6.83180
G01 X17.41613 Y6.84910
G01 X17.44369 Y6.87669
G01 X17.46101 Y6.88593
G01 X17.49926 Y6.89355
G01 X17.69987 Y6.89355
G01 X17.69987 Y24.05453
G01 X17.24526 Y24.05453
G01 X17.22576 Y24.05646
G01 X17.18969 Y24.07139
G01 X17.16213 Y24.09898
G01 X17.15288 Y24.11627
G01 X17.14526 Y24.15453
G01 X17.14526 Y24.95455
G01 X17.15288 Y24.99280
G01 X17.16213 Y25.01010
G01 X17.18969 Y25.03769
G01 X17.20701 Y25.04693
G01 X17.24526 Y25.05455
G01 X17.44534 Y25.05455
G01 X17.44534 Y27.60964
G01 X17.46007 Y27.70232
G01 X17.50264 Y27.78594
G01 X21.12613 Y31.41461
G01 X21.12824 Y34.08753
G01 X20.92826 Y34.08753
G01 X20.89001 Y34.09515
G01 X20.87271 Y34.10439
G01 X20.84513 Y34.13198
G01 X20.83588 Y34.14927
G01 X20.82826 Y34.18753
G01 X20.82826 Y34.98755
G01 X20.83588 Y35.02580
G01 X20.85755 Y35.05824
G01 X20.87271 Y35.07069
G01 X20.90876 Y35.08562
G01 X21.12831 Y35.08755
G01 X21.12831 Y41.95668
G01 X21.07403 Y42.00268
G01 X21.03827 Y42.04928
G01 X21.01229 Y42.10196
G01 X21.00091 Y42.13948
G01 X20.99275 Y42.20753
G01 X20.99275 Y45.47214
G01 X14.58728 Y45.47214
G01 X14.58728 Y45.36891
G01 X14.57969 Y45.33066
G01 X14.55799 Y45.29820
G01 X14.52556 Y45.27653
G01 X14.50679 Y45.27084
G01 X13.62330 Y45.26891
G01 X13.58502 Y45.27653
G01 X13.55259 Y45.29820
G01 X13.54014 Y45.31336
G01 X13.52520 Y45.34940
G01 X13.52520 Y46.19489
G01 X13.54014 Y46.23099
G01 X13.56772 Y46.25857
G01 X13.58502 Y46.26782
G01 X13.62330 Y46.27541
G01 X14.50679 Y46.27348
G01 X14.54286 Y46.25857
G01 X14.57044 Y46.23099
G01 X14.57969 Y46.21369
G01 X14.58728 Y46.17536
G01 X14.58728 Y46.07216
G01 X21.12717 Y46.07216
G01 X21.12130 Y48.30274
G01 X21.13583 Y48.39580
G01 X21.17848 Y48.47973
G01 X23.36811 Y50.67462
G01 X23.42204 Y50.71703
G01 X23.47471 Y50.74302
G01 X23.51226 Y50.75440
G01 X23.57050 Y50.76207
G01 X23.98929 Y50.76255
G01 X23.98929 Y50.86255
G01 X23.99691 Y50.90080
G01 X24.01858 Y50.93324
G01 X24.03374 Y50.94569
G01 X24.06979 Y50.96062
G01 X25.08929 Y50.96255
G01 X25.12757 Y50.95493
G01 X25.14487 Y50.94569
G01 X25.17245 Y50.91810
G01 X25.18170 Y50.90080
G01 X25.18929 Y50.86255
G01 X25.18929 Y50.06253
G01 X25.18170 Y50.02427
G01 X25.17245 Y50.00698
G01 X25.14487 Y49.97939
G01 X25.12757 Y49.97012
G01 X25.08929 Y49.96253
G01 X24.06979 Y49.96446
G01 X24.05104 Y49.97012
G01 X24.01858 Y49.99184
G01 X23.99691 Y50.02427
G01 X23.98929 Y50.06253
G01 X23.98929 Y50.16250
G01 X23.70456 Y50.16250
G01 X21.72161 Y48.17960
G01 X21.72834 Y45.63655
G01 X21.72834 Y42.50755
G01 X24.11629 Y42.50755
G01 X24.11629 Y42.60755
G01 X24.12391 Y42.64580
G01 X24.14558 Y42.67824
G01 X24.16074 Y42.69069
G01 X24.17804 Y42.69993
G01 X24.21629 Y42.70755
G01 X25.21629 Y42.70755
G01 X25.25457 Y42.69993
G01 X25.27187 Y42.69069
G01 X25.29945 Y42.66310
G01 X25.31439 Y42.62706
G01 X25.31629 Y41.80753
G01 X25.31439 Y41.78802
G01 X25.29945 Y41.75198
G01 X25.27187 Y41.72439
G01 X25.23580 Y41.70946
G01 X24.19679 Y41.70946
G01 X24.16074 Y41.72439
G01 X24.14558 Y41.73684
G01 X24.12391 Y41.76927
G01 X24.11629 Y41.80753
G01 X24.11629 Y41.90753
G01 X21.72834 Y41.90753
G01 X21.72834 Y35.08755
G01 X21.92826 Y35.08755
G01 X21.96654 Y35.07993
G01 X21.98384 Y35.07069
G01 X22.01142 Y35.04310
G01 X22.02636 Y35.00706
G01 X22.02826 Y34.88755
G01 X22.84629 Y34.88755
G01 X22.84629 Y34.98755
G01 X22.85391 Y35.02580
G01 X22.87558 Y35.05824
G01 X22.89074 Y35.07069
G01 X22.90804 Y35.07993
G01 X22.94629 Y35.08755
G01 X23.94629 Y35.08755
G01 X23.98457 Y35.07993
G01 X24.00187 Y35.07069
G01 X24.02945 Y35.04310
G01 X24.04439 Y35.00706
G01 X24.04629 Y34.98755
G01 X24.04439 Y34.16802
G01 X24.02945 Y34.13198
G01 X24.00187 Y34.10439
G01 X23.98457 Y34.09515
G01 X23.94629 Y34.08753
G01 X22.94629 Y34.08753
G01 X22.90804 Y34.09515
G01 X22.89074 Y34.10439
G01 X22.87558 Y34.11684
G01 X22.85391 Y34.14927
G01 X22.84629 Y34.18753
G01 X22.84629 Y34.28753
G01 X22.02826 Y34.28753
G01 X22.02636 Y34.16802
G01 X22.01142 Y34.13198
G01 X21.98384 Y34.10439
G01 X21.96654 Y34.09515
G01 X21.92826 Y34.08753
G01 X21.72834 Y34.08753
G01 X21.72834 Y31.40539
G01 X21.71983 Y31.25893
G01 X21.71010 Y31.20541
G01 X21.69087 Y31.15454
G01 X21.66278 Y31.10801
G01 X21.63342 Y31.07341
G01 X18.10615 Y27.54614
G01 X18.13073 Y27.52155
G01 X23.48129 Y27.52155
G01 X23.48129 Y27.62155
G01 X23.48891 Y27.65980
G01 X23.51058 Y27.69224
G01 X23.52574 Y27.70469
G01 X23.56179 Y27.71962
G01 X24.60080 Y27.71962
G01 X24.63687 Y27.70469
G01 X24.66445 Y27.67710
G01 X24.67939 Y27.64106
G01 X24.68129 Y27.62155
G01 X24.67939 Y26.80202
G01 X24.66445 Y26.76598
G01 X24.63687 Y26.73839
G01 X24.61957 Y26.72915
G01 X24.58129 Y26.72153
G01 X23.58129 Y26.72153
G01 X23.54304 Y26.72915
G01 X23.52574 Y26.73839
G01 X23.51058 Y26.75084
G01 X23.48891 Y26.78327
G01 X23.48129 Y26.82153
G01 X23.48129 Y26.92153
G01 X18.04539 Y26.92153
G01 X18.04539 Y25.05455
G01 X18.24526 Y25.05455
G01 X18.28351 Y25.04693
G01 X18.30084 Y25.03769
G01 X18.32842 Y25.01010
G01 X18.34336 Y24.97406
G01 X18.34526 Y24.95455
G01 X18.34526 Y24.15453
G01 X18.34336 Y24.13502
G01 X18.32842 Y24.09898
G01 X18.29990 Y24.07088
G01 X18.29990 Y6.89355
G01 X18.51877 Y6.89162
G01 X18.55484 Y6.87669
G01 X18.56997 Y6.86424
G01 X18.58242 Y6.84910
G01 X18.59736 Y6.81306
G01 X18.59926 Y5.99353
G01 X18.59167 Y5.95527
G01 X18.57714 Y5.93155
G01 X23.86229 Y5.93155
G01 X23.86229 Y6.03155
G01 X23.86991 Y6.06980
G01 X23.89158 Y6.10224
G01 X23.90674 Y6.11469
G01 X23.94279 Y6.12962
G01 X24.98180 Y6.12962
G01 X25.01787 Y6.11469
G01 X25.04545 Y6.08710
G01 X25.06039 Y6.05106
G01 X25.06229 Y6.03155
G01 X25.06229 Y5.23153
G01 X25.06039 Y5.21202
G01 X25.04545 Y5.17598
G01 X25.01787 Y5.14839
G01 X25.00057 Y5.13915
G01 X24.96229 Y5.13153
G01 X23.94279 Y5.13346
G01 X23.90674 Y5.14839
G01 X23.89158 Y5.16084
G01 X23.86991 Y5.19327
G01 X23.86229 Y5.23153
G01 X23.86229 Y5.33153
G01 X18.29939 Y5.33153
G01 X18.29939 Y1.68315
G01 X18.36439 Y1.61347
G01 X18.38887 Y1.57151
G01 X18.40813 Y1.52061
G01 X18.41890 Y1.44893
G01 X18.41547 Y1.39463
G01 X18.40228 Y1.34182
G01 X18.37978 Y1.29227
G01 X18.34866 Y1.24761
G01 X18.31001 Y1.20931
G01 X18.26505 Y1.17865
G01 X18.21529 Y1.15661
G01 X18.16236 Y1.14393
G01 X18.11709 Y1.14055
G01 X0.84509 Y1.26755
G01 X0.77740 Y1.27611
G01 X0.72216 Y1.29524
G01 X0.68782 Y1.31381
G01 X0.64159 Y1.34959
G01 X0.59239 Y1.40994
G01 X0.56663 Y1.46245
G01 X0.55535 Y1.49981
G01 X0.54728 Y1.56755
G01 X0.54728 Y16.94253
G01 X0.34029 Y16.94253
G01 X0.30204 Y16.95015
G01 X0.28474 Y16.95939
G01 X0.25716 Y16.98698
G01 X0.24791 Y17.00427
G01 X0.24029 Y17.04253
G04 P0 ( dwell for no time -- G64 should not smooth over this point )
G00 Z4.00000 ( retract )

G00 X4.60328 Y21.18354 ( rapid move to begin. )
G01 F50.00000
( Mill infeed pass 1/1 )
G01 Z1.95000
G04 P0 ( dwell for no time -- G64 should not smooth over this point )
G01 F200.00000
G01 X4.60328 Y21.18354
G01 X4.60328 Y22.08354
G01 X4.61090 Y22.12182
G01 X4.62014 Y22.13909
G01 X4.64773 Y22.16670
G01 X4.68377 Y22.18161
G01 X4.70328 Y22.18354
G01 X5.37328 Y22.18354
G01 X5.37328 Y26.64246
G01 X5.22959 Y26.70702
G01 X5.08763 Y26.80949
G01 X4.96192 Y26.94581
G01 X4.86259 Y27.11459
G01 X4.80800 Y27.28094
G01 X4.78588 Y27.47555
G01 X4.80528 Y27.66003
G01 X4.86259 Y27.83649
G01 X4.94966 Y27.98835
G01 X5.07950 Y28.13501
G01 X5.23891 Y28.24880
G01 X5.39906 Y28.31952
G01 X5.57020 Y28.35645
G01 X5.76604 Y28.35807
G01 X5.95727 Y28.31576
G01 X6.11699 Y28.24405
G01 X6.25895 Y28.14159
G01 X6.39121 Y27.99714
G01 X6.47922 Y27.84581
G01 X6.50434 Y27.77555
G01 X8.80228 Y27.77555
G01 X8.80228 Y42.28088
G01 X6.84028 Y42.28088
G01 X6.84028 Y42.17654
G01 X6.83269 Y42.13826
G01 X6.82344 Y42.12096
G01 X6.79586 Y42.09338
G01 X6.75979 Y42.07844
G01 X6.74028 Y42.07654
G01 X5.85679 Y42.07844
G01 X5.82072 Y42.09338
G01 X5.79314 Y42.12096
G01 X5.77820 Y42.15703
G01 X5.77630 Y42.17654
G01 X5.77820 Y43.00255
G01 X5.79314 Y43.03859
G01 X5.82072 Y43.06617
G01 X5.83802 Y43.07542
G01 X5.87630 Y43.08304
G01 X6.00828 Y43.08304
G01 X6.00828 Y50.55092
G01 X5.81201 Y50.63987
G01 X5.65588 Y50.75397
G01 X5.51951 Y50.90545
G01 X5.41758 Y51.08198
G01 X5.35730 Y51.26573
G01 X5.33330 Y51.47855
G01 X5.35730 Y51.69135
G01 X5.41758 Y51.87510
G01 X5.51951 Y52.05163
G01 X5.65588 Y52.20311
G01 X5.81201 Y52.31721
G01 X6.00828 Y52.40616
G01 X6.00828 Y56.81255
G01 X6.01404 Y56.87107
G01 X6.03533 Y56.93622
G01 X6.05379 Y56.97079
G01 X6.08956 Y57.01740
G01 X6.15004 Y57.06703
G01 X6.20271 Y57.09302
G01 X6.24026 Y57.10440
G01 X6.30830 Y57.11255
G01 X19.97066 Y57.11255
G01 X19.97066 Y57.93155
G01 X19.86629 Y57.93155
G01 X19.82801 Y57.93914
G01 X19.81071 Y57.94839
G01 X19.78313 Y57.97597
G01 X19.76819 Y58.01204
G01 X19.76629 Y58.03155
G01 X19.76819 Y58.91504
G01 X19.78313 Y58.95110
G01 X19.81071 Y58.97869
G01 X19.82801 Y58.98793
G01 X19.86629 Y58.99553
G01 X19.97066 Y58.99553
G01 X19.97066 Y63.18257
G01 X10.79529 Y63.18257
G01 X10.79529 Y63.08153
G01 X10.78767 Y63.04327
G01 X10.76600 Y63.01081
G01 X10.73357 Y62.98915
G01 X10.71480 Y62.98346
G01 X9.79529 Y62.98153
G01 X9.75701 Y62.98915
G01 X9.72458 Y63.01081
G01 X9.70291 Y63.04327
G01 X9.69529 Y63.08153
G01 X9.69529 Y63.88152
G01 X9.70291 Y63.91980
G01 X9.71213 Y63.93707
G01 X9.73974 Y63.96468
G01 X9.75701 Y63.97393
G01 X9.79529 Y63.98152
G01 X10.71480 Y63.97962
G01 X10.73357 Y63.97393
G01 X10.76600 Y63.95224
G01 X10.78767 Y63.91980
G01 X10.79529 Y63.88152
G01 X10.79529 Y63.78259
G01 X20.27068 Y63.78259
G01 X20.33870 Y63.77444
G01 X20.37624 Y63.76306
G01 X20.42892 Y63.73707
G01 X20.48940 Y63.68744
G01 X20.52517 Y63.64083
G01 X20.55115 Y63.58815
G01 X20.56492 Y63.54111
G01 X20.57020 Y63.49237
G01 X20.57068 Y61.17655
G01 X56.34630 Y61.17655
G01 X56.40482 Y61.17079
G01 X56.46998 Y61.14950
G01 X56.52085 Y61.12014
G01 X56.55842 Y61.08867
G01 X56.58989 Y61.05110
G01 X56.62677 Y60.98211
G01 X56.64054 Y60.93507
G01 X56.64630 Y60.87655
G01 X56.64630 Y34.63355
G01 X58.49230 Y34.63355
G01 X58.49230 Y38.38551
G01 X58.31732 Y38.46382
G01 X58.16476 Y38.57395
G01 X58.01805 Y38.73692
G01 X57.92443 Y38.90014
G01 X57.86306 Y39.08902
G01 X57.84231 Y39.28655
G01 X57.86144 Y39.47372
G01 X57.92443 Y39.67294
G01 X58.02374 Y39.84495
G01 X58.15664 Y39.99252
G01 X58.31732 Y40.10926
G01 X58.49875 Y40.19006
G01 X58.69301 Y40.23133
G01 X58.89161 Y40.23133
G01 X59.08587 Y40.19006
G01 X59.26730 Y40.10926
G01 X59.41985 Y39.99912
G01 X59.56088 Y39.84495
G01 X59.66019 Y39.67294
G01 X59.71884 Y39.49417
G01 X59.74231 Y39.28655
G01 X59.71884 Y39.07891
G01 X59.66019 Y38.90014
G01 X59.56088 Y38.72813
G01 X59.41985 Y38.57395
G01 X59.26730 Y38.46382
G01 X59.09232 Y38.38551
G01 X59.09184 Y34.32375
G01 X59.08656 Y34.27500
G01 X59.06946 Y34.21874
G01 X59.04681 Y34.17528
G01 X59.00444 Y34.12141
G01 X58.95056 Y34.07904
G01 X58.90711 Y34.05639
G01 X58.85084 Y34.03929
G01 X58.80210 Y34.03401
G01 X56.33650 Y34.03401
G01 X56.28776 Y34.03929
G01 X56.23149 Y34.05639
G01 X56.18804 Y34.07904
G01 X56.14143 Y34.11481
G01 X56.09179 Y34.17528
G01 X56.06914 Y34.21874
G01 X56.05062 Y34.28471
G01 X56.04628 Y34.33355
G01 X56.04628 Y60.57653
G01 X20.57068 Y60.57653
G01 X20.57068 Y58.99553
G01 X20.67279 Y58.99553
G01 X20.71104 Y58.98793
G01 X20.72834 Y58.97869
G01 X20.75592 Y58.95110
G01 X20.77086 Y58.91504
G01 X20.77279 Y58.03155
G01 X20.76517 Y57.99327
G01 X20.75592 Y57.97597
G01 X20.72834 Y57.94839
G01 X20.71104 Y57.93914
G01 X20.67279 Y57.93155
G01 X20.57068 Y57.93155
G01 X20.57068 Y56.81255
G01 X20.56492 Y56.75400
G01 X20.55115 Y56.70696
G01 X20.52517 Y56.65428
G01 X20.48280 Y56.60041
G01 X20.42892 Y56.55804
G01 X20.37624 Y56.53206
G01 X20.33870 Y56.52068
G01 X20.27068 Y56.51253
G01 X6.60830 Y56.51253
G01 X6.60830 Y52.40616
G01 X6.80457 Y52.31721
G01 X6.96070 Y52.20311
G01 X7.09707 Y52.05163
G01 X7.19900 Y51.87510
G01 X7.25928 Y51.69135
G01 X7.28328 Y51.47855
G01 X7.25928 Y51.26573
G01 X7.19900 Y51.08198
G01 X7.09707 Y50.90545
G01 X6.96070 Y50.75397
G01 X6.80457 Y50.63987
G01 X6.60830 Y50.55092
G01 X6.60830 Y43.08304
G01 X6.75979 Y43.08111
G01 X6.79586 Y43.06617
G01 X6.81099 Y43.05373
G01 X6.82344 Y43.03859
G01 X6.83838 Y43.00255
G01 X6.84028 Y42.88091
G01 X9.11208 Y42.88042
G01 X9.16082 Y42.87514
G01 X9.20786 Y42.86137
G01 X9.26054 Y42.83539
G01 X9.31442 Y42.79302
G01 X9.35679 Y42.73915
G01 X9.38277 Y42.68647
G01 X9.39415 Y42.64893
G01 X9.40230 Y42.58091
G01 X9.40230 Y38.31655
G01 X11.82724 Y38.31655
G01 X11.85236 Y38.38681
G01 X11.94037 Y38.53814
G01 X12.05711 Y38.66860
G01 X12.21459 Y38.78505
G01 X12.35828 Y38.84962
G01 X12.35828 Y41.82655
G01 X12.36404 Y41.88507
G01 X12.38533 Y41.95022
G01 X12.40885 Y41.99320
G01 X12.44616 Y42.03867
G01 X12.48373 Y42.07014
G01 X12.53460 Y42.09950
G01 X12.60946 Y42.12221
G01 X12.65830 Y42.12655
G01 X12.72828 Y42.12655
G01 X12.72828 Y42.27654
G01 X12.73590 Y42.31482
G01 X12.74515 Y42.33209
G01 X12.77273 Y42.35970
G01 X12.80877 Y42.37461
G01 X13.64781 Y42.37461
G01 X13.68385 Y42.35970
G01 X13.71144 Y42.33209
G01 X13.72068 Y42.31482
G01 X13.72828 Y42.27654
G01 X13.72828 Y41.37654
G01 X13.72068 Y41.33826
G01 X13.71144 Y41.32099
G01 X13.68385 Y41.29338
G01 X13.64781 Y41.27847
G01 X13.62828 Y41.27654
G01 X12.95830 Y41.27654
G01 X12.95830 Y38.84962
G01 X13.10199 Y38.78505
G01 X13.24395 Y38.68259
G01 X13.37621 Y38.53814
G01 X13.47273 Y38.36771
G01 X13.52630 Y38.20103
G01 X13.54514 Y38.02699
G01 X13.52630 Y37.83205
G01 X13.46897 Y37.65559
G01 X13.37621 Y37.49494
G01 X13.25947 Y37.36448
G01 X13.10199 Y37.24802
G01 X12.93252 Y37.17256
G01 X12.75104 Y37.13400
G01 X12.56554 Y37.13400
G01 X12.37431 Y37.17632
G01 X12.21459 Y37.24802
G01 X12.07263 Y37.35049
G01 X11.94037 Y37.49494
G01 X11.85236 Y37.64627
G01 X11.82724 Y37.71653
G01 X9.40230 Y37.71653
G01 X9.40230 Y32.85555
G01 X12.60128 Y32.85555
G01 X12.60128 Y33.00554
G01 X12.60890 Y33.04382
G01 X12.61815 Y33.06109
G01 X12.64573 Y33.08870
G01 X12.68177 Y33.10361
G01 X13.50128 Y33.10554
G01 X13.52081 Y33.10361
G01 X13.55685 Y33.08870
G01 X13.58444 Y33.06109
G01 X13.59368 Y33.04382
G01 X13.60128 Y33.00554
G01 X13.60128 Y32.10554
G01 X13.59368 Y32.06726
G01 X13.58444 Y32.04999
G01 X13.55685 Y32.02238
G01 X13.52081 Y32.00747
G01 X13.50128 Y32.00554
G01 X12.83130 Y32.00554
G01 X12.83130 Y28.43562
G01 X12.97499 Y28.37105
G01 X13.12508 Y28.26201
G01 X13.24921 Y28.12414
G01 X13.34197 Y27.96349
G01 X13.39930 Y27.78703
G01 X13.41870 Y27.60255
G01 X13.39930 Y27.41805
G01 X13.34197 Y27.24159
G01 X13.24263 Y27.07281
G01 X13.12508 Y26.94307
G01 X12.97499 Y26.83402
G01 X12.80552 Y26.75856
G01 X12.63438 Y26.72163
G01 X12.43854 Y26.72000
G01 X12.25706 Y26.75856
G01 X12.09691 Y26.82927
G01 X11.93750 Y26.94307
G01 X11.81337 Y27.08094
G01 X11.72536 Y27.23227
G01 X11.66328 Y27.41805
G01 X11.64388 Y27.60255
G01 X11.66163 Y27.77669
G01 X11.72536 Y27.97281
G01 X11.81337 Y28.12414
G01 X11.93750 Y28.26201
G01 X12.08759 Y28.37105
G01 X12.23128 Y28.43562
G01 X12.23128 Y32.25553
G01 X9.40230 Y32.25553
G01 X9.40230 Y27.47555
G01 X9.39654 Y27.41700
G01 X9.38277 Y27.36996
G01 X9.35173 Y27.30888
G01 X9.31442 Y27.26341
G01 X9.26054 Y27.22104
G01 X9.21709 Y27.19839
G01 X9.17032 Y27.18368
G01 X9.10230 Y27.17553
G01 X6.50434 Y27.17553
G01 X6.47922 Y27.10527
G01 X6.39121 Y26.95394
G01 X6.27447 Y26.82348
G01 X6.11699 Y26.70702
G01 X5.97330 Y26.64246
G01 X5.97330 Y21.93355
G01 X6.94330 Y21.93355
G01 X7.00182 Y21.92779
G01 X7.05809 Y21.91069
G01 X7.10154 Y21.88803
G01 X7.16202 Y21.83840
G01 X7.19273 Y21.80020
G01 X7.22377 Y21.73911
G01 X7.23754 Y21.69207
G01 X7.24282 Y21.64333
G01 X7.24330 Y11.26555
G01 X12.05134 Y11.26555
G01 X12.04263 Y11.29938
G01 X12.02544 Y11.48399
G01 X12.04428 Y11.65803
G01 X12.10636 Y11.84381
G01 X12.19437 Y11.99514
G01 X12.31850 Y12.13301
G01 X12.46859 Y12.24205
G01 X12.61228 Y12.30662
G01 X12.61228 Y15.67794
G01 X12.60321 Y15.70303
G01 X12.60128 Y15.72254
G01 X12.60128 Y16.62254
G01 X12.60890 Y16.66082
G01 X12.61815 Y16.67809
G01 X12.64573 Y16.70570
G01 X12.66303 Y16.71492
G01 X12.70128 Y16.72254
G01 X12.80123 Y16.72254
G01 X12.80123 Y19.85555
G01 X12.80699 Y19.91407
G01 X12.82828 Y19.97922
G01 X12.85764 Y20.03010
G01 X12.88911 Y20.06767
G01 X12.92668 Y20.09914
G01 X12.99567 Y20.13602
G01 X13.04271 Y20.14979
G01 X13.10125 Y20.15555
G01 X15.22528 Y20.15555
G01 X15.22528 Y20.87155
G01 X15.23290 Y20.90980
G01 X15.24214 Y20.92710
G01 X15.26973 Y20.95469
G01 X15.28702 Y20.96393
G01 X15.32530 Y20.97155
G01 X17.12281 Y20.96962
G01 X17.15883 Y20.95469
G01 X17.18644 Y20.92710
G01 X17.19566 Y20.90980
G01 X17.20330 Y20.87155
G01 X17.20330 Y18.96655
G01 X17.19566 Y18.92827
G01 X17.17399 Y18.89584
G01 X17.14155 Y18.87415
G01 X17.10330 Y18.86653
G01 X15.30577 Y18.86846
G01 X15.26973 Y18.88339
G01 X15.25459 Y18.89584
G01 X15.24214 Y18.91098
G01 X15.22721 Y18.94702
G01 X15.22528 Y19.55553
G01 X13.40125 Y19.55553
G01 X13.40125 Y16.72254
G01 X13.50128 Y16.72254
G01 X13.53956 Y16.71492
G01 X13.57199 Y16.69325
G01 X13.59368 Y16.66082
G01 X13.59937 Y16.64205
G01 X13.60128 Y15.72254
G01 X13.59368 Y15.68426
G01 X13.58444 Y15.66699
G01 X13.55685 Y15.63938
G01 X13.52081 Y15.62447
G01 X13.21230 Y15.62254
G01 X13.21230 Y12.30662
G01 X13.35599 Y12.24205
G01 X13.50608 Y12.13301
G01 X13.63021 Y11.99514
G01 X13.72297 Y11.83449
G01 X13.78030 Y11.65803
G01 X13.79970 Y11.47355
G01 X13.78030 Y11.28905
G01 X13.71822 Y11.10327
G01 X13.62363 Y10.94381
G01 X13.50608 Y10.81407
G01 X13.36478 Y10.71074
G01 X13.18652 Y10.62956
G01 X13.00504 Y10.59100
G01 X12.80920 Y10.59263
G01 X12.63755 Y10.62974
G01 X12.51276 Y10.68628
G01 X12.46282 Y10.67129
G01 X12.40430 Y10.66553
G01 X6.63134 Y10.66553
G01 X6.60622 Y10.59527
G01 X6.51821 Y10.44394
G01 X6.40147 Y10.31348
G01 X6.24399 Y10.19702
G01 X6.10030 Y10.13246
G01 X6.09982 Y5.49475
G01 X6.09454 Y5.44600
G01 X6.08077 Y5.39896
G01 X6.05479 Y5.34628
G01 X6.01242 Y5.29241
G01 X5.97485 Y5.26094
G01 X5.91509 Y5.22739
G01 X5.85882 Y5.21029
G01 X5.80030 Y5.20453
G01 X5.73027 Y5.20453
G01 X5.73027 Y5.05454
G01 X5.72268 Y5.01626
G01 X5.70099 Y4.98383
G01 X5.68582 Y4.97138
G01 X5.66855 Y4.96216
G01 X5.63027 Y4.95454
G01 X4.83028 Y4.95454
G01 X4.79202 Y4.96216
G01 X4.75956 Y4.98383
G01 X4.73790 Y5.01626
G01 X4.73221 Y5.03503
G01 X4.73028 Y5.95454
G01 X4.73790 Y5.99282
G01 X4.74714 Y6.01009
G01 X4.77473 Y6.03770
G01 X4.81077 Y6.05261
G01 X4.83028 Y6.05454
G01 X5.50028 Y6.05454
G01 X5.50028 Y10.13246
G01 X5.35659 Y10.19702
G01 X5.21463 Y10.29949
G01 X5.08237 Y10.44394
G01 X4.98959 Y10.60459
G01 X4.93500 Y10.77094
G01 X4.91344 Y10.97599
G01 X4.93228 Y11.15003
G01 X4.98585 Y11.31671
G01 X5.08895 Y11.49527
G01 X5.20650 Y11.62501
G01 X5.35659 Y11.73405
G01 X5.52606 Y11.80952
G01 X5.69720 Y11.84645
G01 X5.90338 Y11.84645
G01 X6.07452 Y11.80952
G01 X6.24399 Y11.73405
G01 X6.39408 Y11.62501
G01 X6.51163 Y11.49527
G01 X6.60622 Y11.33581
G01 X6.63134 Y11.26555
G01 X6.64328 Y11.26555
G01 X6.64328 Y21.33353
G01 X5.60327 Y21.33353
G01 X5.60327 Y21.18354
G01 X5.59568 Y21.14526
G01 X5.57399 Y21.11283
G01 X5.55882 Y21.10038
G01 X5.54155 Y21.09116
G01 X5.50327 Y21.08354
G01 X4.68377 Y21.08547
G01 X4.64773 Y21.10038
G01 X4.63256 Y21.11283
G01 X4.61090 Y21.14526
G01 X4.60328 Y21.18354
G04 P0 ( dwell for no time -- G64 should not smooth over this point )
G00 Z4.00000 ( retract )

G00 X2.54029 Y17.99259 ( rapid move to begin. )
G01 F50.00000
( Mill infeed pass 1/1 )
G01 Z1.95000
G04 P0 ( dwell for no time -- G64 should not smooth over this point )
G01 F200.00000
G01 X2.54029 Y17.99259
G01 X2.54791 Y17.95434
G01 X2.56960 Y17.92190
G01 X2.60204 Y17.90021
G01 X2.64029 Y17.89259
G01 X3.64031 Y17.89259
G01 X3.67856 Y17.90021
G01 X3.71100 Y17.92190
G01 X3.73269 Y17.95434
G01 X3.74031 Y17.99259
G01 X3.73838 Y18.81212
G01 X3.72345 Y18.84816
G01 X3.69586 Y18.87575
G01 X3.65982 Y18.89068
G01 X3.64031 Y18.89259
G01 X2.64029 Y18.89259
G01 X2.62078 Y18.89068
G01 X2.58474 Y18.87575
G01 X2.55715 Y18.84816
G01 X2.54222 Y18.81212
G01 X2.54029 Y18.79259
G01 X2.54029 Y17.99259
G01 X2.24588 Y26.68815
G01 X2.24588 Y28.26295
G01 X2.25350 Y28.30120
G01 X2.26274 Y28.31850
G01 X2.29033 Y28.34609
G01 X2.32637 Y28.36102
G01 X2.84039 Y28.36295
G01 X2.84039 Y32.62957
G01 X2.62081 Y32.63150
G01 X2.58476 Y32.64643
G01 X2.56960 Y32.65888
G01 X2.54793 Y32.69131
G01 X2.54031 Y32.72957
G01 X2.54224 Y33.54910
G01 X2.54793 Y33.56784
G01 X2.56960 Y33.60028
G01 X2.60206 Y33.62197
G01 X2.64031 Y33.62959
G01 X3.65982 Y33.62766
G01 X3.69589 Y33.61273
G01 X3.72347 Y33.58514
G01 X3.73841 Y33.54910
G01 X3.74031 Y33.52959
G01 X3.73841 Y32.71006
G01 X3.72347 Y32.67402
G01 X3.71103 Y32.65888
G01 X3.69589 Y32.64643
G01 X3.65982 Y32.63150
G01 X3.44041 Y32.62957
G01 X3.44041 Y28.36295
G01 X3.94021 Y28.36102
G01 X3.97625 Y28.34609
G01 X4.00384 Y28.31850
G01 X4.01308 Y28.30120
G01 X4.02070 Y28.26295
G01 X4.02070 Y26.68815
G01 X4.01877 Y26.66862
G01 X4.00384 Y26.63258
G01 X3.97625 Y26.60499
G01 X3.94021 Y26.59006
G01 X3.43330 Y26.58813
G01 X3.43330 Y22.18354
G01 X4.10328 Y22.18354
G01 X4.12281 Y22.18161
G01 X4.15885 Y22.16670
G01 X4.18644 Y22.13909
G01 X4.19568 Y22.12182
G01 X4.20328 Y22.08354
G01 X4.20328 Y21.18354
G01 X4.19568 Y21.14526
G01 X4.18644 Y21.12799
G01 X4.15885 Y21.10038
G01 X4.14156 Y21.09116
G01 X4.10328 Y21.08354
G01 X3.30328 Y21.08354
G01 X3.26503 Y21.09116
G01 X3.23259 Y21.11283
G01 X3.21090 Y21.14526
G01 X3.20521 Y21.16403
G01 X3.20328 Y21.33353
G01 X3.13330 Y21.33353
G01 X3.07476 Y21.33929
G01 X3.01849 Y21.35639
G01 X2.97504 Y21.37904
G01 X2.91456 Y21.42868
G01 X2.88385 Y21.46688
G01 X2.85281 Y21.52796
G01 X2.83904 Y21.57500
G01 X2.83328 Y21.63355
G01 X2.83328 Y26.58813
G01 X2.32637 Y26.59006
G01 X2.29033 Y26.60499
G01 X2.26274 Y26.63258
G01 X2.24781 Y26.66862
G01 X2.24588 Y26.68815
G04 P0 ( dwell for no time -- G64 should not smooth over this point )
G00 Z4.00000 ( retract )

G00 X2.54029 Y34.62959 ( rapid move to begin. )
G01 F50.00000
( Mill infeed pass 1/1 )
G01 Z1.95000
G04 P0 ( dwell for no time -- G64 should not smooth over this point )
G01 F200.00000
G01 X2.54029 Y34.62959
G01 X2.54791 Y34.59134
G01 X2.56960 Y34.55890
G01 X2.60204 Y34.53721
G01 X2.64029 Y34.52959
G01 X3.64031 Y34.52959
G01 X3.67856 Y34.53721
G01 X3.69586 Y34.54645
G01 X3.72345 Y34.57404
G01 X3.73269 Y34.59134
G01 X3.74031 Y34.62959
G01 X3.74031 Y35.42959
G01 X3.73269 Y35.46786
G01 X3.71100 Y35.50030
G01 X3.67856 Y35.52199
G01 X3.64031 Y35.52959
G01 X2.64029 Y35.52959
G01 X2.62078 Y35.52768
G01 X2.58474 Y35.51275
G01 X2.55715 Y35.48516
G01 X2.54222 Y35.44912
G01 X2.54029 Y35.42959
G01 X2.54029 Y34.62959
G01 X2.22030 Y40.67004
G01 X2.22030 Y41.47654
G01 X2.22789 Y41.51482
G01 X2.23714 Y41.53209
G01 X2.26472 Y41.55967
G01 X2.28202 Y41.56892
G01 X2.32030 Y41.57654
G01 X3.20379 Y41.57461
G01 X3.23986 Y41.55967
G01 X3.25499 Y41.54725
G01 X3.27669 Y41.51482
G01 X3.28428 Y41.47654
G01 X3.28428 Y41.37316
G01 X5.77630 Y41.37316
G01 X5.77630 Y41.47641
G01 X5.78389 Y41.51469
G01 X5.79314 Y41.53199
G01 X5.82072 Y41.55957
G01 X5.85679 Y41.57451
G01 X5.87630 Y41.57641
G01 X6.74028 Y41.57641
G01 X6.75979 Y41.57451
G01 X6.79586 Y41.55957
G01 X6.82344 Y41.53199
G01 X6.83838 Y41.49592
G01 X6.84028 Y40.66991
G01 X6.83269 Y40.63166
G01 X6.81099 Y40.59920
G01 X6.77856 Y40.57753
G01 X6.75979 Y40.57184
G01 X5.85679 Y40.57184
G01 X5.83802 Y40.57753
G01 X5.80559 Y40.59920
G01 X5.78389 Y40.63166
G01 X5.77630 Y40.66991
G01 X5.77630 Y40.77314
G01 X3.28428 Y40.77314
G01 X3.28428 Y40.67004
G01 X3.27669 Y40.63176
G01 X3.25499 Y40.59933
G01 X3.23986 Y40.58690
G01 X3.22256 Y40.57766
G01 X3.18428 Y40.57004
G01 X2.30079 Y40.57197
G01 X2.28202 Y40.57766
G01 X2.24959 Y40.59933
G01 X2.22789 Y40.63176
G01 X2.22030 Y40.67004
G04 P0 ( dwell for no time -- G64 should not smooth over this point )
G00 Z4.00000 ( retract )

G00 X2.22030 Y46.87564 ( rapid move to begin. )
G01 F50.00000
( Mill infeed pass 1/1 )
G01 Z1.95000
G04 P0 ( dwell for no time -- G64 should not smooth over this point )
G01 F200.00000
G01 X2.22030 Y46.87564
G01 X2.22220 Y47.70165
G01 X2.23714 Y47.73769
G01 X2.24959 Y47.75285
G01 X2.28202 Y47.77455
G01 X2.32030 Y47.78214
G01 X2.45238 Y47.78214
G01 X2.45599 Y50.50952
G01 X2.48499 Y50.59875
G01 X2.52998 Y50.66273
G01 X2.90275 Y51.03728
G01 X2.87384 Y51.09174
G01 X2.81458 Y51.27583
G01 X2.79330 Y51.47855
G01 X2.81458 Y51.68124
G01 X2.88233 Y51.88444
G01 X2.97951 Y52.05163
G01 X3.11588 Y52.20311
G01 X3.28080 Y52.32292
G01 X3.46929 Y52.40644
G01 X3.47534 Y58.05855
G01 X3.37379 Y58.05855
G01 X3.33551 Y58.06614
G01 X3.30308 Y58.08783
G01 X3.29066 Y58.10297
G01 X3.27572 Y58.13904
G01 X3.27572 Y59.04204
G01 X3.28141 Y59.06081
G01 X3.30308 Y59.09324
G01 X3.33551 Y59.11493
G01 X3.37379 Y59.12253
G01 X4.19980 Y59.12062
G01 X4.21857 Y59.11493
G01 X4.25100 Y59.09324
G01 X4.27267 Y59.06081
G01 X4.28029 Y59.02253
G01 X4.27836 Y58.13904
G01 X4.26342 Y58.10297
G01 X4.25100 Y58.08783
G01 X4.21857 Y58.06614
G01 X4.18029 Y58.05855
G01 X4.07534 Y58.05855
G01 X4.06929 Y52.40591
G01 X4.25578 Y52.32292
G01 X4.41255 Y52.20969
G01 X4.56279 Y52.04286
G01 X4.65900 Y51.87510
G01 X4.72200 Y51.68124
G01 X4.74328 Y51.47855
G01 X4.72200 Y51.27583
G01 X4.65900 Y51.08198
G01 X4.55707 Y50.90545
G01 X4.42070 Y50.75397
G01 X4.25578 Y50.63415
G01 X4.06957 Y50.55125
G01 X3.85974 Y50.50832
G01 X3.65603 Y50.51048
G01 X3.46701 Y50.55125
G01 X3.32700 Y50.61300
G01 X3.05230 Y50.33827
G01 X3.05230 Y47.78214
G01 X3.18428 Y47.78214
G01 X3.22256 Y47.77455
G01 X3.25499 Y47.75285
G01 X3.26744 Y47.73769
G01 X3.28238 Y47.70165
G01 X3.28238 Y46.85613
G01 X3.26744 Y46.82009
G01 X3.25499 Y46.80493
G01 X3.22256 Y46.78326
G01 X3.18428 Y46.77559
G01 X2.32030 Y46.77559
G01 X2.28202 Y46.78326
G01 X2.24959 Y46.80493
G01 X2.22789 Y46.83739
G01 X2.22030 Y46.87564
G04 P0 ( dwell for no time -- G64 should not smooth over this point )
G00 Z4.00000 ( retract )

G00 X4.78029 Y58.15855 ( rapid move to begin. )
G01 F50.00000
( Mill infeed pass 1/1 )
G01 Z1.95000
G04 P0 ( dwell for no time -- G64 should not smooth over this point )
G01 F200.00000
G01 X4.78029 Y58.15855
G01 X4.78217 Y58.13904
G01 X4.79713 Y58.10297
G01 X4.82471 Y58.07539
G01 X4.86078 Y58.06045
G01 X5.68679 Y58.05855
G01 X5.70630 Y58.06045
G01 X5.74234 Y58.07539
G01 X5.76992 Y58.10297
G01 X5.77917 Y58.12027
G01 X5.78679 Y58.15855
G01 X5.78679 Y58.29053
G01 X9.75079 Y58.29053
G01 X9.75079 Y58.15855
G01 X9.75841 Y58.12027
G01 X9.78008 Y58.08783
G01 X9.81251 Y58.06614
G01 X9.83128 Y58.06045
G01 X10.65729 Y58.05855
G01 X10.69557 Y58.06614
G01 X10.72800 Y58.08783
G01 X10.74967 Y58.12027
G01 X10.75536 Y58.13904
G01 X10.75536 Y59.04204
G01 X10.74042 Y59.07810
G01 X10.72800 Y59.09324
G01 X10.69557 Y59.11493
G01 X10.65729 Y59.12253
G01 X10.54530 Y59.12253
G01 X10.54530 Y61.58153
G01 X10.69529 Y61.58153
G01 X10.73357 Y61.58915
G01 X10.75084 Y61.59839
G01 X10.77845 Y61.62598
G01 X10.79336 Y61.66202
G01 X10.79529 Y62.48153
G01 X10.78767 Y62.51980
G01 X10.76600 Y62.55224
G01 X10.73357 Y62.57393
G01 X10.69529 Y62.58153
G01 X9.77578 Y62.57962
G01 X9.75701 Y62.57393
G01 X9.72458 Y62.55224
G01 X9.70291 Y62.51980
G01 X9.69529 Y62.48153
G01 X9.69529 Y62.38049
G01 X6.60830 Y62.38049
G01 X6.60830 Y67.18053
G01 X70.01628 Y67.18053
G01 X70.01628 Y32.22055
G01 X53.85230 Y32.22055
G01 X53.85230 Y57.06655
G01 X53.84654 Y57.12507
G01 X53.83277 Y57.17211
G01 X53.80679 Y57.22479
G01 X53.76442 Y57.27867
G01 X53.72685 Y57.31014
G01 X53.67598 Y57.33950
G01 X53.60112 Y57.36221
G01 X53.55230 Y57.36655
G01 X51.74878 Y57.36655
G01 X51.72012 Y57.45294
G01 X51.62084 Y57.62495
G01 X51.48794 Y57.77252
G01 X51.33605 Y57.88357
G01 X51.13572 Y57.97275
G01 X50.95157 Y58.01133
G01 X50.76341 Y58.01189
G01 X50.54893 Y57.96630
G01 X50.37725 Y57.88926
G01 X50.20918 Y57.76513
G01 X50.08370 Y57.62495
G01 X49.98439 Y57.45294
G01 X49.92302 Y57.26406
G01 X49.90227 Y57.06655
G01 X49.92302 Y56.86902
G01 X49.98439 Y56.68014
G01 X50.08370 Y56.50813
G01 X50.20918 Y56.36795
G01 X50.38657 Y56.23907
G01 X50.55868 Y56.16302
G01 X50.75297 Y56.12175
G01 X50.95157 Y56.12175
G01 X51.13572 Y56.16033
G01 X51.33605 Y56.24951
G01 X51.48794 Y56.36056
G01 X51.62084 Y56.50813
G01 X51.72012 Y56.68014
G01 X51.74878 Y56.76653
G01 X53.25228 Y56.76653
G01 X53.25228 Y31.92055
G01 X53.25804 Y31.86200
G01 X53.27181 Y31.81496
G01 X53.30869 Y31.74598
G01 X53.34016 Y31.70841
G01 X53.37773 Y31.67694
G01 X53.42860 Y31.64758
G01 X53.49376 Y31.62629
G01 X53.55230 Y31.62053
G01 X70.31630 Y31.62053
G01 X70.37482 Y31.62629
G01 X70.42186 Y31.64006
G01 X70.49085 Y31.67694
G01 X70.52842 Y31.70841
G01 X70.55989 Y31.74598
G01 X70.59344 Y31.80574
G01 X70.61054 Y31.86200
G01 X70.61630 Y31.92055
G01 X70.61630 Y67.48055
G01 X70.61054 Y67.53907
G01 X70.59677 Y67.58611
G01 X70.55989 Y67.65510
G01 X70.52842 Y67.69267
G01 X70.49085 Y67.72414
G01 X70.42186 Y67.76102
G01 X70.37482 Y67.77479
G01 X70.31630 Y67.78055
G01 X6.30830 Y67.78055
G01 X6.25946 Y67.77621
G01 X6.20271 Y67.76102
G01 X6.15004 Y67.73503
G01 X6.08956 Y67.68540
G01 X6.05379 Y67.63879
G01 X6.02781 Y67.58611
G01 X6.01404 Y67.53907
G01 X6.00828 Y67.48055
G01 X6.00828 Y62.08049
G01 X6.01404 Y62.02194
G01 X6.03533 Y61.95679
G01 X6.05379 Y61.92222
G01 X6.08956 Y61.87561
G01 X6.15004 Y61.82598
G01 X6.20271 Y61.79999
G01 X6.24026 Y61.78861
G01 X6.30830 Y61.78046
G01 X9.69529 Y61.78046
G01 X9.69722 Y61.66202
G01 X9.71213 Y61.62598
G01 X9.73974 Y61.59839
G01 X9.75701 Y61.58915
G01 X9.79529 Y61.58153
G01 X9.94528 Y61.58153
G01 X9.94528 Y59.12253
G01 X9.83128 Y59.12062
G01 X9.81251 Y59.11493
G01 X9.78008 Y59.09324
G01 X9.75841 Y59.06081
G01 X9.75272 Y59.04204
G01 X9.75079 Y58.89055
G01 X5.78679 Y58.89055
G01 X5.78679 Y59.02253
G01 X5.77917 Y59.06081
G01 X5.76992 Y59.07810
G01 X5.74234 Y59.10569
G01 X5.70630 Y59.12062
G01 X4.86078 Y59.12062
G01 X4.82471 Y59.10569
G01 X4.79713 Y59.07810
G01 X4.78217 Y59.04204
G01 X4.78029 Y59.02253
G01 X4.78029 Y58.15855
G04 P0 ( dwell for no time -- G64 should not smooth over this point )
G00 Z4.00000 ( retract )

G00 X11.25729 Y58.15855 ( rapid move to begin. )
G01 F50.00000
( Mill infeed pass 1/1 )
G01 Z1.95000
G04 P0 ( dwell for no time -- G64 should not smooth over this point )
G01 F200.00000
G01 X11.25729 Y58.15855
G01 X11.25919 Y58.13904
G01 X11.27413 Y58.10297
G01 X11.30171 Y58.07539
G01 X11.33778 Y58.06045
G01 X12.16379 Y58.05855
G01 X12.20204 Y58.06614
G01 X12.23448 Y58.08783
G01 X12.25617 Y58.12027
G01 X12.26379 Y58.16353
G01 X18.25979 Y58.16353
G01 X18.25979 Y58.03155
G01 X18.26741 Y57.99327
G01 X18.27666 Y57.97597
G01 X18.30421 Y57.94839
G01 X18.34028 Y57.93345
G01 X19.16629 Y57.93155
G01 X19.20457 Y57.93914
G01 X19.23700 Y57.96083
G01 X19.25867 Y57.99327
G01 X19.26436 Y58.01204
G01 X19.26629 Y58.89553
G01 X19.25867 Y58.93381
G01 X19.23700 Y58.96624
G01 X19.20457 Y58.98793
G01 X19.18580 Y58.99362
G01 X18.35979 Y58.99553
G01 X18.32149 Y58.98793
G01 X18.30421 Y58.97869
G01 X18.27666 Y58.95110
G01 X18.26741 Y58.93381
G01 X18.25979 Y58.89553
G01 X18.25979 Y58.76355
G01 X12.26379 Y58.76355
G01 X12.26186 Y59.04204
G01 X12.24692 Y59.07810
G01 X12.21934 Y59.10569
G01 X12.20204 Y59.11493
G01 X12.16379 Y59.12253
G01 X11.35729 Y59.12253
G01 X11.33778 Y59.12062
G01 X11.30171 Y59.10569
G01 X11.27413 Y59.07810
G01 X11.25919 Y59.04204
G01 X11.25729 Y58.15855
G04 P0 ( dwell for no time -- G64 should not smooth over this point )
G00 Z4.00000 ( retract )

G00 X12.95330 Y51.47855 ( rapid move to begin. )
G01 F50.00000
( Mill infeed pass 1/1 )
G01 Z1.95000
G04 P0 ( dwell for no time -- G64 should not smooth over this point )
G01 F200.00000
G01 X12.95330 Y51.47855
G01 X12.97458 Y51.68124
G01 X13.03384 Y51.86534
G01 X13.14608 Y52.05975
G01 X13.27588 Y52.20311
G01 X13.44080 Y52.32292
G01 X13.62701 Y52.40583
G01 X13.81603 Y52.44657
G01 X14.04055 Y52.44657
G01 X14.22957 Y52.40583
G01 X14.41578 Y52.32292
G01 X14.58070 Y52.20311
G01 X14.71050 Y52.05975
G01 X14.82274 Y51.86534
G01 X14.88200 Y51.68124
G01 X14.90328 Y51.47855
G01 X14.88200 Y51.27583
G01 X14.82274 Y51.09174
G01 X14.71707 Y50.90545
G01 X14.58809 Y50.76138
G01 X14.42457 Y50.63987
G01 X14.35530 Y50.60662
G01 X14.35530 Y47.78204
G01 X14.48728 Y47.78204
G01 X14.52556 Y47.77442
G01 X14.54286 Y47.76517
G01 X14.57044 Y47.73759
G01 X14.58538 Y47.70152
G01 X14.58728 Y46.87551
G01 X14.57969 Y46.83726
G01 X14.57044 Y46.81996
G01 X14.55799 Y46.80480
G01 X14.52556 Y46.78313
G01 X14.48728 Y46.77554
G01 X13.62330 Y46.77554
G01 X13.60379 Y46.77744
G01 X13.56772 Y46.79238
G01 X13.54014 Y46.81996
G01 X13.53089 Y46.83726
G01 X13.52330 Y46.87551
G01 X13.52520 Y47.70152
G01 X13.54014 Y47.73759
G01 X13.56772 Y47.76517
G01 X13.58502 Y47.77442
G01 X13.62330 Y47.78204
G01 X13.75528 Y47.78204
G01 X13.75528 Y50.52338
G01 X13.62701 Y50.55125
G01 X13.44080 Y50.63415
G01 X13.27588 Y50.75397
G01 X13.14608 Y50.89732
G01 X13.03384 Y51.09174
G01 X12.97458 Y51.27583
G01 X12.95330 Y51.47855
G04 P0 ( dwell for no time -- G64 should not smooth over this point )
G00 Z4.00000 ( retract )

G00 X10.41330 Y51.47855 ( rapid move to begin. )
G01 F50.00000
( Mill infeed pass 1/1 )
G01 Z1.95000
G04 P0 ( dwell for no time -- G64 should not smooth over this point )
G01 F200.00000
G01 X10.41330 Y51.47855
G01 X10.43730 Y51.69135
G01 X10.49758 Y51.87510
G01 X10.59951 Y52.05163
G01 X10.73588 Y52.20311
G01 X10.89201 Y52.31721
G01 X11.08828 Y52.40616
G01 X11.08828 Y53.38355
G01 X11.09404 Y53.44207
G01 X11.10781 Y53.48911
G01 X11.13379 Y53.54179
G01 X11.18343 Y53.60227
G01 X11.23004 Y53.63803
G01 X11.28271 Y53.66402
G01 X11.32976 Y53.67779
G01 X11.37850 Y53.68307
G01 X48.09402 Y53.68355
G01 X49.27616 Y54.86567
G01 X49.31373 Y54.89714
G01 X49.38271 Y54.93402
G01 X49.42976 Y54.94779
G01 X49.47850 Y54.95307
G01 X50.00720 Y54.95355
G01 X50.08370 Y55.08495
G01 X50.20918 Y55.22513
G01 X50.36849 Y55.34357
G01 X50.55868 Y55.43006
G01 X50.76341 Y55.47189
G01 X50.95157 Y55.47133
G01 X51.14583 Y55.43006
G01 X51.32726 Y55.34926
G01 X51.48794 Y55.23252
G01 X51.62084 Y55.08495
G01 X51.72012 Y54.91294
G01 X51.78149 Y54.72406
G01 X51.80171 Y54.53699
G01 X51.77880 Y54.31891
G01 X51.72012 Y54.14014
G01 X51.61423 Y53.96000
G01 X51.48794 Y53.82056
G01 X51.32726 Y53.70382
G01 X51.14583 Y53.62302
G01 X50.95157 Y53.58175
G01 X50.74263 Y53.58337
G01 X50.55868 Y53.62302
G01 X50.37725 Y53.70382
G01 X50.21660 Y53.82056
G01 X50.08370 Y53.96813
G01 X49.98439 Y54.14014
G01 X49.92574 Y54.31891
G01 X49.91990 Y54.35353
G01 X49.61256 Y54.35353
G01 X48.43042 Y53.17141
G01 X48.37654 Y53.12904
G01 X48.32386 Y53.10306
G01 X48.27682 Y53.08929
G01 X48.21830 Y53.08353
G01 X11.68830 Y53.08353
G01 X11.68830 Y52.40616
G01 X11.87578 Y52.32292
G01 X12.04809 Y52.19570
G01 X12.17707 Y52.05163
G01 X12.27425 Y51.88444
G01 X12.34200 Y51.68124
G01 X12.36328 Y51.47855
G01 X12.34200 Y51.27583
G01 X12.27900 Y51.08198
G01 X12.17707 Y50.90545
G01 X12.04070 Y50.75397
G01 X11.88457 Y50.63987
G01 X11.68957 Y50.55125
G01 X11.47974 Y50.50832
G01 X11.28637 Y50.50888
G01 X11.08701 Y50.55125
G01 X10.89201 Y50.63987
G01 X10.73588 Y50.75397
G01 X10.59951 Y50.90545
G01 X10.49758 Y51.08198
G01 X10.43730 Y51.26573
G01 X10.41330 Y51.47855
G04 P0 ( dwell for no time -- G64 should not smooth over this point )
G00 Z4.00000 ( retract )

G00 X7.87330 Y51.47855 ( rapid move to begin. )
G01 F50.00000
( Mill infeed pass 1/1 )
G01 Z1.95000
G04 P0 ( dwell for no time -- G64 should not smooth over this point )
G01 F200.00000
G01 X7.87330 Y51.47855
G01 X7.89730 Y51.69135
G01 X7.95758 Y51.87510
G01 X8.05951 Y52.05163
G01 X8.19588 Y52.20311
G01 X8.35201 Y52.31721
G01 X8.54828 Y52.40616
G01 X8.54876 Y55.17133
G01 X8.55404 Y55.22007
G01 X8.56781 Y55.26711
G01 X8.59379 Y55.31979
G01 X8.62956 Y55.36640
G01 X8.69004 Y55.41603
G01 X8.74271 Y55.44202
G01 X8.79946 Y55.45721
G01 X8.84830 Y55.46155
G01 X40.49828 Y55.46155
G01 X40.50021 Y55.81606
G01 X40.51514 Y55.85210
G01 X40.52759 Y55.86724
G01 X40.54273 Y55.87969
G01 X40.57877 Y55.89462
G01 X42.12230 Y55.89655
G01 X42.16055 Y55.88893
G01 X42.17785 Y55.87969
G01 X42.20544 Y55.85210
G01 X42.22037 Y55.81606
G01 X42.22230 Y54.39955
G01 X42.21468 Y54.36127
G01 X42.19299 Y54.32884
G01 X42.16055 Y54.30715
G01 X42.12230 Y54.29953
G01 X40.59830 Y54.29953
G01 X40.56002 Y54.30715
G01 X40.54273 Y54.31639
G01 X40.51514 Y54.34398
G01 X40.50021 Y54.38002
G01 X40.49828 Y54.86153
G01 X9.14830 Y54.86153
G01 X9.14830 Y52.40616
G01 X9.33578 Y52.32292
G01 X9.50070 Y52.20311
G01 X9.63707 Y52.05163
G01 X9.73900 Y51.87510
G01 X9.80200 Y51.68124
G01 X9.82328 Y51.47855
G01 X9.80200 Y51.27583
G01 X9.74274 Y51.09174
G01 X9.63050 Y50.89732
G01 X9.50070 Y50.75397
G01 X9.33578 Y50.63415
G01 X9.14957 Y50.55125
G01 X8.96055 Y50.51048
G01 X8.73603 Y50.51048
G01 X8.54701 Y50.55125
G01 X8.36080 Y50.63415
G01 X8.19588 Y50.75397
G01 X8.06608 Y50.89732
G01 X7.95384 Y51.09174
G01 X7.89458 Y51.27583
G01 X7.87330 Y51.47855
G04 P0 ( dwell for no time -- G64 should not smooth over this point )
G00 Z4.00000 ( retract )

G00 X14.12828 Y41.37654 ( rapid move to begin. )
G01 F50.00000
( Mill infeed pass 1/1 )
G01 Z1.95000
G04 P0 ( dwell for no time -- G64 should not smooth over this point )
G01 F200.00000
G01 X14.12828 Y41.37654
G01 X14.12828 Y42.27654
G01 X14.13590 Y42.31482
G01 X14.14514 Y42.33209
G01 X14.17273 Y42.35970
G01 X14.19002 Y42.36892
G01 X14.22828 Y42.37654
G01 X15.04778 Y42.37461
G01 X15.08382 Y42.35970
G01 X15.09899 Y42.34725
G01 X15.12068 Y42.31482
G01 X15.12827 Y42.27654
G01 X15.12827 Y42.12655
G01 X15.19830 Y42.12655
G01 X15.24712 Y42.12221
G01 X15.30386 Y42.10702
G01 X15.37285 Y42.07014
G01 X15.41702 Y42.03140
G01 X15.44773 Y41.99320
G01 X15.47877 Y41.93211
G01 X15.49254 Y41.88507
G01 X15.49830 Y41.82655
G01 X15.49830 Y38.90395
G01 X15.98570 Y38.90395
G01 X16.02395 Y38.89633
G01 X16.05639 Y38.87464
G01 X16.07808 Y38.84220
G01 X16.08570 Y38.80395
G01 X16.08570 Y38.31655
G01 X16.64913 Y38.31655
G01 X16.74181 Y38.30184
G01 X16.82543 Y38.25927
G01 X19.05235 Y36.03751
G01 X19.62824 Y36.03751
G01 X19.66652 Y36.02989
G01 X19.69895 Y36.00820
G01 X19.72065 Y35.97576
G01 X19.72824 Y35.93751
G01 X19.72824 Y35.13749
G01 X19.72065 Y35.09923
G01 X19.69895 Y35.06680
G01 X19.66652 Y35.04511
G01 X19.62824 Y35.03749
G01 X18.62824 Y35.03749
G01 X18.58999 Y35.04511
G01 X18.55753 Y35.06680
G01 X18.53586 Y35.09923
G01 X18.52824 Y35.13749
G01 X18.52824 Y35.71313
G01 X16.52484 Y37.71653
G01 X16.08570 Y37.71653
G01 X16.08377 Y37.20962
G01 X16.06884 Y37.17358
G01 X16.05639 Y37.15844
G01 X16.04125 Y37.14599
G01 X16.00521 Y37.13106
G01 X14.41090 Y37.12913
G01 X14.37262 Y37.13675
G01 X14.34019 Y37.15844
G01 X14.31850 Y37.19087
G01 X14.31088 Y37.22915
G01 X14.31088 Y38.80395
G01 X14.31850 Y38.84220
G01 X14.32774 Y38.85950
G01 X14.35533 Y38.88709
G01 X14.39137 Y38.90202
G01 X14.89828 Y38.90395
G01 X14.89828 Y41.27654
G01 X14.20877 Y41.27847
G01 X14.17273 Y41.29338
G01 X14.15756 Y41.30583
G01 X14.13590 Y41.33826
G01 X14.12828 Y41.37654
G04 P0 ( dwell for no time -- G64 should not smooth over this point )
G00 Z4.00000 ( retract )

G00 X18.52827 Y33.23747 ( rapid move to begin. )
G01 F50.00000
( Mill infeed pass 1/1 )
G01 Z1.95000
G04 P0 ( dwell for no time -- G64 should not smooth over this point )
G01 F200.00000
G01 X18.52827 Y33.23747
G01 X18.53589 Y33.19921
G01 X18.55755 Y33.16675
G01 X18.58999 Y33.14509
G01 X18.62827 Y33.13747
G01 X19.62827 Y33.13747
G01 X19.66654 Y33.14509
G01 X19.68382 Y33.15433
G01 X19.71143 Y33.18192
G01 X19.72636 Y33.21796
G01 X19.72827 Y33.23747
G01 X19.72827 Y34.03746
G01 X19.72636 Y34.05697
G01 X19.71143 Y34.09301
G01 X19.69898 Y34.10818
G01 X19.66654 Y34.12987
G01 X19.62827 Y34.13746
G01 X18.62827 Y34.13746
G01 X18.58999 Y34.12987
G01 X18.57272 Y34.12062
G01 X18.55755 Y34.10818
G01 X18.53589 Y34.07574
G01 X18.52827 Y34.03746
G01 X18.52827 Y33.23747
G04 P0 ( dwell for no time -- G64 should not smooth over this point )
G00 Z4.00000 ( retract )

G00 X14.00128 Y32.10554 ( rapid move to begin. )
G01 F50.00000
( Mill infeed pass 1/1 )
G01 Z1.95000
G04 P0 ( dwell for no time -- G64 should not smooth over this point )
G01 F200.00000
G01 X14.00128 Y32.10554
G01 X14.00890 Y32.06726
G01 X14.03056 Y32.03483
G01 X14.04573 Y32.02238
G01 X14.08177 Y32.00747
G01 X14.77128 Y32.00554
G01 X14.77128 Y28.48995
G01 X14.26437 Y28.48802
G01 X14.22833 Y28.47309
G01 X14.20074 Y28.44550
G01 X14.19150 Y28.42820
G01 X14.18388 Y28.38995
G01 X14.18581 Y26.79562
G01 X14.20074 Y26.75958
G01 X14.21319 Y26.74444
G01 X14.22833 Y26.73199
G01 X14.26437 Y26.71706
G01 X14.77128 Y26.71513
G01 X14.77176 Y25.86857
G01 X14.77943 Y25.81033
G01 X14.79081 Y25.77281
G01 X14.81679 Y25.72011
G01 X14.84524 Y25.68378
G01 X14.84524 Y25.10449
G01 X14.85286 Y25.06623
G01 X14.87453 Y25.03380
G01 X14.90699 Y25.01211
G01 X14.94524 Y25.00449
G01 X15.96475 Y25.00642
G01 X16.00082 Y25.02135
G01 X16.02840 Y25.04894
G01 X16.04334 Y25.08498
G01 X16.04524 Y25.10449
G01 X16.04524 Y25.90451
G01 X16.04334 Y25.92402
G01 X16.02840 Y25.96006
G01 X16.00082 Y25.98765
G01 X15.98352 Y25.99689
G01 X15.94524 Y26.00451
G01 X15.37130 Y26.00451
G01 X15.37130 Y26.71513
G01 X15.87821 Y26.71706
G01 X15.91425 Y26.73199
G01 X15.92939 Y26.74444
G01 X15.94184 Y26.75958
G01 X15.95677 Y26.79562
G01 X15.95870 Y28.38995
G01 X15.95108 Y28.42820
G01 X15.94184 Y28.44550
G01 X15.91425 Y28.47309
G01 X15.87821 Y28.48802
G01 X15.37130 Y28.48995
G01 X15.37130 Y32.55555
G01 X15.36554 Y32.61407
G01 X15.34425 Y32.67922
G01 X15.32073 Y32.72220
G01 X15.28342 Y32.76767
G01 X15.24585 Y32.79914
G01 X15.19498 Y32.82850
G01 X15.12012 Y32.85121
G01 X15.07130 Y32.85555
G01 X15.00127 Y32.85555
G01 X14.99937 Y33.02505
G01 X14.99368 Y33.04382
G01 X14.97199 Y33.07625
G01 X14.93955 Y33.09792
G01 X14.90127 Y33.10554
G01 X14.10128 Y33.10554
G01 X14.06302 Y33.09792
G01 X14.04573 Y33.08870
G01 X14.01814 Y33.06109
G01 X14.00890 Y33.04382
G01 X14.00128 Y33.00554
G01 X14.00128 Y32.10554
G04 P0 ( dwell for no time -- G64 should not smooth over this point )
G00 Z4.00000 ( retract )

G00 X14.84527 Y23.20447 ( rapid move to begin. )
G01 F50.00000
( Mill infeed pass 1/1 )
G01 Z1.95000
G04 P0 ( dwell for no time -- G64 should not smooth over this point )
G01 F200.00000
G01 X14.84527 Y23.20447
G01 X14.85289 Y23.16621
G01 X14.87455 Y23.13375
G01 X14.90699 Y23.11209
G01 X14.94527 Y23.10447
G01 X15.94527 Y23.10447
G01 X15.98354 Y23.11209
G01 X16.00082 Y23.12133
G01 X16.02843 Y23.14892
G01 X16.04336 Y23.18496
G01 X16.04527 Y23.20447
G01 X16.04527 Y24.00446
G01 X16.04336 Y24.02397
G01 X16.02843 Y24.06001
G01 X16.01598 Y24.07518
G01 X15.98354 Y24.09687
G01 X15.94527 Y24.10446
G01 X14.94527 Y24.10446
G01 X14.90699 Y24.09687
G01 X14.88972 Y24.08762
G01 X14.87455 Y24.07518
G01 X14.85289 Y24.04274
G01 X14.84527 Y24.00446
G01 X14.84527 Y23.20447
G04 P0 ( dwell for no time -- G64 should not smooth over this point )
G00 Z4.00000 ( retract )

G00 X25.78129 Y27.77159 ( rapid move to begin. )
G01 F50.00000
( Mill infeed pass 1/1 )
G01 Z1.95000
G04 P0 ( dwell for no time -- G64 should not smooth over this point )
G01 F200.00000
G01 X25.78129 Y27.77159
G01 X25.78129 Y28.57159
G01 X25.78322 Y28.59112
G01 X25.79815 Y28.62716
G01 X25.82574 Y28.65475
G01 X25.86178 Y28.66968
G01 X26.90082 Y28.66968
G01 X26.93686 Y28.65475
G01 X26.96445 Y28.62716
G01 X26.97369 Y28.60986
G01 X26.98131 Y28.57159
G01 X26.98131 Y28.45051
G01 X30.97328 Y28.30966
G01 X30.97521 Y28.70156
G01 X30.99014 Y28.73760
G01 X31.00259 Y28.75274
G01 X31.01773 Y28.76519
G01 X31.05377 Y28.78012
G01 X32.85130 Y28.78205
G01 X32.88955 Y28.77443
G01 X32.92199 Y28.75274
G01 X32.94368 Y28.72030
G01 X32.95130 Y28.68205
G01 X32.95130 Y27.03105
G01 X32.94937 Y27.01152
G01 X32.93444 Y26.97548
G01 X32.90685 Y26.94789
G01 X32.87081 Y26.93296
G01 X31.07330 Y26.93103
G01 X31.03502 Y26.93865
G01 X31.01773 Y26.94789
G01 X30.99014 Y26.97548
G01 X30.97521 Y27.01152
G01 X30.97328 Y27.03105
G01 X30.97328 Y27.70928
G01 X26.98131 Y27.85013
G01 X26.98131 Y27.77159
G01 X26.97369 Y27.73334
G01 X26.96445 Y27.71604
G01 X26.93686 Y27.68845
G01 X26.90082 Y27.67352
G01 X25.88129 Y27.67159
G01 X25.84304 Y27.67921
G01 X25.82574 Y27.68845
G01 X25.79815 Y27.71604
G01 X25.78322 Y27.75208
G01 X25.14631 Y33.23757
G01 X25.14631 Y34.03759
G01 X25.15393 Y34.07584
G01 X25.16318 Y34.09314
G01 X25.19076 Y34.12073
G01 X25.20806 Y34.12997
G01 X25.24631 Y34.13759
G01 X26.24631 Y34.13759
G01 X26.28459 Y34.12997
G01 X26.30189 Y34.12073
G01 X26.32947 Y34.09314
G01 X26.34441 Y34.05710
G01 X26.34631 Y33.61755
G01 X28.53488 Y33.61755
G01 X28.53681 Y34.12446
G01 X28.55174 Y34.16050
G01 X28.57933 Y34.18809
G01 X28.59662 Y34.19733
G01 X28.63490 Y34.20495
G01 X30.22921 Y34.20302
G01 X30.26525 Y34.18809
G01 X30.28039 Y34.17564
G01 X30.29284 Y34.16050
G01 X30.30777 Y34.12446
G01 X30.30970 Y33.61755
G01 X33.86730 Y33.61755
G01 X33.91612 Y33.61321
G01 X33.98209 Y33.59469
G01 X34.02554 Y33.57203
G01 X34.07942 Y33.52967
G01 X34.11673 Y33.48420
G01 X34.14777 Y33.42311
G01 X34.16154 Y33.37607
G01 X34.16730 Y33.31755
G01 X34.16730 Y33.24752
G01 X34.31729 Y33.24752
G01 X34.35557 Y33.23993
G01 X34.38800 Y33.21824
G01 X34.40045 Y33.20307
G01 X34.40967 Y33.18580
G01 X34.41729 Y33.14752
G01 X34.41536 Y32.32802
G01 X34.40045 Y32.29198
G01 X34.38800 Y32.27681
G01 X34.35557 Y32.25515
G01 X34.31729 Y32.24753
G01 X33.41729 Y32.24753
G01 X33.37901 Y32.25515
G01 X33.36174 Y32.26439
G01 X33.33413 Y32.29198
G01 X33.31922 Y32.32802
G01 X33.31729 Y32.34753
G01 X33.31729 Y33.01753
G01 X30.30970 Y33.01753
G01 X30.30777 Y32.51062
G01 X30.29284 Y32.47458
G01 X30.26525 Y32.44699
G01 X30.24795 Y32.43775
G01 X30.20970 Y32.43013
G01 X28.63490 Y32.43013
G01 X28.61537 Y32.43206
G01 X28.57933 Y32.44699
G01 X28.55174 Y32.47458
G01 X28.53681 Y32.51062
G01 X28.53488 Y33.01753
G01 X26.06638 Y33.01753
G01 X26.00783 Y33.02329
G01 X25.94268 Y33.04458
G01 X25.89180 Y33.07394
G01 X25.82206 Y33.13757
G01 X25.22681 Y33.13950
G01 X25.19076 Y33.15443
G01 X25.17560 Y33.16688
G01 X25.15393 Y33.19931
G01 X25.14631 Y33.23757
G01 X25.14629 Y35.13759
G01 X25.15391 Y35.09934
G01 X25.17560 Y35.06690
G01 X25.20804 Y35.04521
G01 X25.24629 Y35.03759
G01 X26.24631 Y35.03759
G01 X26.28456 Y35.04521
G01 X26.30186 Y35.05445
G01 X26.32945 Y35.08204
G01 X26.33869 Y35.09934
G01 X26.34631 Y35.13759
G01 X26.34631 Y35.93759
G01 X26.34438 Y35.95712
G01 X26.32945 Y35.99316
G01 X26.30186 Y36.02075
G01 X26.28456 Y36.02999
G01 X26.24631 Y36.03759
G01 X25.24629 Y36.03759
G01 X25.22678 Y36.03568
G01 X25.19074 Y36.02075
G01 X25.16315 Y35.99316
G01 X25.14822 Y35.95712
G01 X25.14629 Y35.93759
G01 X25.14629 Y35.13759
G04 P0 ( dwell for no time -- G64 should not smooth over this point )
G00 Z4.00000 ( retract )

G00 X26.41631 Y40.85757 ( rapid move to begin. )
G01 F50.00000
( Mill infeed pass 1/1 )
G01 Z1.95000
G04 P0 ( dwell for no time -- G64 should not smooth over this point )
G01 F200.00000
G01 X26.41631 Y40.85757
G01 X26.41631 Y41.65759
G01 X26.42393 Y41.69584
G01 X26.44560 Y41.72828
G01 X26.46076 Y41.74073
G01 X26.49681 Y41.75566
G01 X27.53582 Y41.75566
G01 X27.57189 Y41.74073
G01 X27.59947 Y41.71314
G01 X27.60872 Y41.69584
G01 X27.61631 Y41.65759
G01 X27.61631 Y41.49155
G01 X30.31288 Y41.49155
G01 X30.31481 Y41.99846
G01 X30.32974 Y42.03450
G01 X30.35733 Y42.06209
G01 X30.37462 Y42.07133
G01 X30.41290 Y42.07895
G01 X31.98768 Y42.07895
G01 X32.00721 Y42.07702
G01 X32.04325 Y42.06209
G01 X32.07084 Y42.03450
G01 X32.08577 Y41.99846
G01 X32.08770 Y41.49155
G01 X35.26430 Y41.49155
G01 X35.33232 Y41.48340
G01 X35.37909 Y41.46869
G01 X35.42254 Y41.44603
G01 X35.47642 Y41.40367
G01 X35.51373 Y41.35820
G01 X35.54477 Y41.29711
G01 X35.55854 Y41.25007
G01 X35.56430 Y41.19155
G01 X35.56430 Y40.86752
G01 X35.71429 Y40.86752
G01 X35.75257 Y40.85993
G01 X35.78500 Y40.83824
G01 X35.79745 Y40.82307
G01 X35.81236 Y40.78703
G01 X35.81429 Y39.96753
G01 X35.80667 Y39.92927
G01 X35.78500 Y39.89681
G01 X35.75257 Y39.87515
G01 X35.71429 Y39.86753
G01 X34.81429 Y39.86753
G01 X34.77601 Y39.87515
G01 X34.74358 Y39.89681
G01 X34.72191 Y39.92927
G01 X34.71429 Y39.96753
G01 X34.71622 Y40.78703
G01 X34.73113 Y40.82307
G01 X34.74358 Y40.83824
G01 X34.77601 Y40.85993
G01 X34.81429 Y40.86752
G01 X34.96428 Y40.86752
G01 X34.96428 Y40.89153
G01 X32.08770 Y40.89153
G01 X32.08577 Y40.38462
G01 X32.07084 Y40.34858
G01 X32.04325 Y40.32099
G01 X32.00721 Y40.30606
G01 X31.98768 Y40.30413
G01 X30.41290 Y40.30413
G01 X30.37462 Y40.31175
G01 X30.35733 Y40.32099
G01 X30.32974 Y40.34858
G01 X30.31481 Y40.38462
G01 X30.31288 Y40.89153
G01 X27.61631 Y40.89153
G01 X27.61441 Y40.83806
G01 X27.59947 Y40.80202
G01 X27.57189 Y40.77443
G01 X27.55459 Y40.76519
G01 X27.51631 Y40.75757
G01 X26.51631 Y40.75757
G01 X26.47806 Y40.76519
G01 X26.44560 Y40.78688
G01 X26.42393 Y40.81931
G01 X26.41631 Y40.85757
G01 X26.41629 Y42.75759
G01 X26.42391 Y42.71934
G01 X26.44560 Y42.68690
G01 X26.47804 Y42.66521
G01 X26.51629 Y42.65759
G01 X27.51631 Y42.65759
G01 X27.55456 Y42.66521
G01 X27.57186 Y42.67445
G01 X27.59945 Y42.70204
G01 X27.60869 Y42.71934
G01 X27.61631 Y42.75759
G01 X27.61631 Y43.55759
G01 X27.60869 Y43.59586
G01 X27.58700 Y43.62830
G01 X27.55456 Y43.64999
G01 X27.51631 Y43.65759
G01 X26.51629 Y43.65759
G01 X26.49678 Y43.65568
G01 X26.46074 Y43.64075
G01 X26.43315 Y43.61316
G01 X26.41822 Y43.57712
G01 X26.41629 Y43.55759
G01 X26.41629 Y42.75759
G01 X26.28931 Y49.11257
G01 X26.29693 Y49.07431
G01 X26.31860 Y49.04188
G01 X26.35106 Y49.02014
G01 X26.36981 Y49.01450
G01 X26.96508 Y49.01257
G01 X27.03485 Y48.94891
G01 X27.08573 Y48.91955
G01 X27.14138 Y48.90065
G01 X27.19962 Y48.89296
G01 X29.93188 Y48.89248
G01 X29.93381 Y48.38562
G01 X29.94874 Y48.34955
G01 X29.97633 Y48.32194
G01 X30.01237 Y48.30706
G01 X30.03190 Y48.30513
G01 X31.60670 Y48.30513
G01 X31.64495 Y48.31275
G01 X31.66225 Y48.32194
G01 X31.68984 Y48.34955
G01 X31.70477 Y48.38562
G01 X31.70670 Y48.89248
G01 X35.84007 Y48.89248
G01 X35.85729 Y48.87531
G01 X35.85729 Y48.34953
G01 X35.85922 Y48.33002
G01 X35.87413 Y48.29398
G01 X35.90174 Y48.26639
G01 X35.93778 Y48.25141
G01 X35.95729 Y48.24953
G01 X36.85729 Y48.24953
G01 X36.89557 Y48.25715
G01 X36.92800 Y48.27881
G01 X36.94045 Y48.29398
G01 X36.95536 Y48.33002
G01 X36.95729 Y49.14952
G01 X36.94967 Y49.18780
G01 X36.94045 Y49.20507
G01 X36.91284 Y49.23268
G01 X36.87680 Y49.24762
G01 X36.33159 Y49.24950
G01 X36.17647 Y49.40459
G01 X36.13888 Y49.43606
G01 X36.06989 Y49.47299
G01 X36.01315 Y49.48818
G01 X35.97413 Y49.49204
G01 X31.70670 Y49.49253
G01 X31.70477 Y49.99946
G01 X31.68984 Y50.03550
G01 X31.66225 Y50.06309
G01 X31.64495 Y50.07228
G01 X31.60670 Y50.07995
G01 X30.03190 Y50.07995
G01 X30.01237 Y50.07802
G01 X29.97633 Y50.06309
G01 X29.94874 Y50.03550
G01 X29.93381 Y49.99946
G01 X29.93188 Y49.49253
G01 X27.48931 Y49.49253
G01 X27.48741 Y49.93210
G01 X27.47247 Y49.96814
G01 X27.44489 Y49.99573
G01 X27.42759 Y50.00497
G01 X27.38931 Y50.01257
G01 X26.36981 Y50.01063
G01 X26.35106 Y50.00497
G01 X26.31860 Y49.98328
G01 X26.29693 Y49.95084
G01 X26.28931 Y49.91259
G01 X26.28931 Y49.11257
G01 X26.28929 Y51.01259
G01 X26.29691 Y50.97434
G01 X26.31860 Y50.94190
G01 X26.35104 Y50.92021
G01 X26.38929 Y50.91259
G01 X27.38931 Y50.91259
G01 X27.42756 Y50.92021
G01 X27.44486 Y50.92945
G01 X27.47245 Y50.95704
G01 X27.48169 Y50.97434
G01 X27.48931 Y51.01259
G01 X27.48931 Y51.81259
G01 X27.48738 Y51.83212
G01 X27.47245 Y51.86816
G01 X27.44486 Y51.89575
G01 X27.42756 Y51.90499
G01 X27.38931 Y51.91259
G01 X26.38929 Y51.91259
G01 X26.36978 Y51.91068
G01 X26.33374 Y51.89575
G01 X26.30615 Y51.86816
G01 X26.29122 Y51.83212
G01 X26.28929 Y51.81259
G01 X26.28929 Y51.01259
G04 P0 ( dwell for no time -- G64 should not smooth over this point )
G00 Z4.00000 ( retract )

G00 X40.62528 Y51.22455 ( rapid move to begin. )
G01 F50.00000
( Mill infeed pass 1/1 )
G01 Z1.95000
G04 P0 ( dwell for no time -- G64 should not smooth over this point )
G01 F200.00000
G01 X40.62528 Y51.22455
G01 X40.62528 Y52.62155
G01 X40.63290 Y52.65980
G01 X40.65459 Y52.69224
G01 X40.68702 Y52.71393
G01 X40.72530 Y52.72155
G01 X42.26881 Y52.71962
G01 X42.30485 Y52.70469
G01 X42.31999 Y52.69224
G01 X42.33244 Y52.67710
G01 X42.34737 Y52.64106
G01 X42.34930 Y52.28655
G01 X49.95574 Y52.28655
G01 X49.98439 Y52.37294
G01 X50.08370 Y52.54495
G01 X50.21660 Y52.69252
G01 X50.37725 Y52.80926
G01 X50.55868 Y52.89006
G01 X50.74263 Y52.92970
G01 X50.95157 Y52.93133
G01 X51.14583 Y52.89006
G01 X51.31794 Y52.81401
G01 X51.49533 Y52.68513
G01 X51.62084 Y52.54495
G01 X51.72012 Y52.37294
G01 X51.78149 Y52.18406
G01 X51.80171 Y51.99699
G01 X51.77880 Y51.77891
G01 X51.72012 Y51.60014
G01 X51.61423 Y51.42000
G01 X51.48794 Y51.28056
G01 X51.32726 Y51.16382
G01 X51.14583 Y51.08302
G01 X50.95157 Y51.04175
G01 X50.74263 Y51.04337
G01 X50.55868 Y51.08302
G01 X50.37725 Y51.16382
G01 X50.21660 Y51.28056
G01 X50.08370 Y51.42813
G01 X49.98439 Y51.60014
G01 X49.95574 Y51.68653
G01 X42.34930 Y51.68653
G01 X42.34737 Y51.20502
G01 X42.33244 Y51.16898
G01 X42.31999 Y51.15384
G01 X42.30485 Y51.14139
G01 X42.26881 Y51.12646
G01 X40.72530 Y51.12453
G01 X40.68702 Y51.13215
G01 X40.65459 Y51.15384
G01 X40.63290 Y51.18627
G01 X40.62528 Y51.22455
G04 P0 ( dwell for no time -- G64 should not smooth over this point )
G00 Z4.00000 ( retract )

G00 X49.90227 Y49.44655 ( rapid move to begin. )
G01 F50.00000
( Mill infeed pass 1/1 )
G01 Z1.95000
G04 P0 ( dwell for no time -- G64 should not smooth over this point )
G01 F200.00000
G01 X49.90227 Y49.44655
G01 X49.92302 Y49.24902
G01 X49.98439 Y49.06014
G01 X50.08370 Y48.88813
G01 X50.21660 Y48.74056
G01 X50.37725 Y48.62382
G01 X50.55868 Y48.54302
G01 X50.75297 Y48.50175
G01 X50.95157 Y48.50175
G01 X51.14583 Y48.54302
G01 X51.32726 Y48.62382
G01 X51.48794 Y48.74056
G01 X51.62084 Y48.88813
G01 X51.72012 Y49.06014
G01 X51.78149 Y49.24902
G01 X51.80227 Y49.44655
G01 X51.78314 Y49.63372
G01 X51.71537 Y49.84226
G01 X51.62084 Y50.00495
G01 X51.48794 Y50.15249
G01 X51.32726 Y50.26926
G01 X51.15561 Y50.34630
G01 X50.94111 Y50.39186
G01 X50.75297 Y50.39133
G01 X50.55868 Y50.35006
G01 X50.37725 Y50.26926
G01 X50.22472 Y50.15912
G01 X50.07799 Y49.99611
G01 X49.98439 Y49.83294
G01 X49.92302 Y49.64406
G01 X49.90227 Y49.44655
G01 X49.90227 Y46.90655
G01 X49.92302 Y47.10404
G01 X49.98439 Y47.29294
G01 X50.08370 Y47.46492
G01 X50.20918 Y47.60513
G01 X50.37725 Y47.72926
G01 X50.54893 Y47.80627
G01 X50.76341 Y47.85189
G01 X50.95157 Y47.85130
G01 X51.14583 Y47.81006
G01 X51.32726 Y47.72926
G01 X51.48794 Y47.61252
G01 X51.62084 Y47.46492
G01 X51.72012 Y47.29294
G01 X51.78149 Y47.10404
G01 X51.80227 Y46.90655
G01 X51.78149 Y46.70902
G01 X51.72012 Y46.52012
G01 X51.62084 Y46.34813
G01 X51.49533 Y46.20795
G01 X51.32726 Y46.08382
G01 X51.15561 Y46.00678
G01 X50.94111 Y45.96119
G01 X50.75297 Y45.96175
G01 X50.55868 Y46.00300
G01 X50.37725 Y46.08382
G01 X50.21660 Y46.20053
G01 X50.08370 Y46.34813
G01 X49.98439 Y46.52012
G01 X49.92302 Y46.70902
G01 X49.90227 Y46.90655
G01 X49.90227 Y44.36655
G01 X49.92302 Y44.56406
G01 X49.98439 Y44.75294
G01 X50.08370 Y44.92495
G01 X50.20918 Y45.06513
G01 X50.37725 Y45.18926
G01 X50.54893 Y45.26630
G01 X50.76341 Y45.31189
G01 X50.95157 Y45.31133
G01 X51.14583 Y45.27006
G01 X51.32726 Y45.18926
G01 X51.48794 Y45.07252
G01 X51.62084 Y44.92495
G01 X51.72012 Y44.75294
G01 X51.78149 Y44.56406
G01 X51.80227 Y44.36655
G01 X51.78149 Y44.16902
G01 X51.72012 Y43.98014
G01 X51.62084 Y43.80813
G01 X51.49533 Y43.66795
G01 X51.32726 Y43.54382
G01 X51.15561 Y43.46678
G01 X50.94111 Y43.42119
G01 X50.75297 Y43.42175
G01 X50.55868 Y43.46302
G01 X50.37725 Y43.54382
G01 X50.21660 Y43.66056
G01 X50.08370 Y43.80813
G01 X49.98439 Y43.98014
G01 X49.92302 Y44.16902
G01 X49.90227 Y44.36655
G01 X49.90227 Y41.82655
G01 X49.92302 Y42.02406
G01 X49.98439 Y42.21294
G01 X50.08370 Y42.38495
G01 X50.20918 Y42.52513
G01 X50.38657 Y42.65401
G01 X50.55868 Y42.73006
G01 X50.75297 Y42.77133
G01 X50.96191 Y42.76970
G01 X51.14583 Y42.73006
G01 X51.32726 Y42.64926
G01 X51.49533 Y42.52513
G01 X51.62084 Y42.38495
G01 X51.69732 Y42.25355
G01 X52.40930 Y42.25355
G01 X52.46782 Y42.24779
G01 X52.52409 Y42.23069
G01 X52.56754 Y42.20803
G01 X52.62142 Y42.16567
G01 X52.66379 Y42.11179
G01 X52.68644 Y42.06833
G01 X52.70354 Y42.01207
G01 X52.70930 Y41.95355
G01 X52.70930 Y27.98355
G01 X52.70354 Y27.92500
G01 X52.68977 Y27.87796
G01 X52.65873 Y27.81688
G01 X52.62142 Y27.77141
G01 X52.56754 Y27.72904
G01 X52.51486 Y27.70306
G01 X52.46782 Y27.68929
G01 X52.41908 Y27.68401
G01 X52.35076 Y27.68929
G01 X52.28560 Y27.71058
G01 X52.23473 Y27.73994
G01 X52.15802 Y27.81053
G01 X36.76130 Y27.81053
G01 X36.76130 Y27.15805
G01 X36.75937 Y27.13852
G01 X36.74444 Y27.10248
G01 X36.71685 Y27.07489
G01 X36.69955 Y27.06565
G01 X36.66130 Y27.05803
G01 X34.88330 Y27.05803
G01 X34.86377 Y27.05996
G01 X34.82773 Y27.07489
G01 X34.80014 Y27.10248
G01 X34.78521 Y27.13852
G01 X34.78328 Y27.15805
G01 X34.78328 Y28.80905
G01 X34.79090 Y28.84730
G01 X34.81259 Y28.87974
G01 X34.84502 Y28.90143
G01 X34.88330 Y28.90905
G01 X36.68081 Y28.90712
G01 X36.71685 Y28.89219
G01 X36.73199 Y28.87974
G01 X36.74444 Y28.86460
G01 X36.75937 Y28.82856
G01 X36.76130 Y28.41055
G01 X52.10928 Y28.41055
G01 X52.10928 Y41.65353
G01 X51.78461 Y41.65353
G01 X51.77880 Y41.61891
G01 X51.72012 Y41.44014
G01 X51.62084 Y41.26813
G01 X51.48794 Y41.12056
G01 X51.32726 Y41.00382
G01 X51.14583 Y40.92302
G01 X50.96191 Y40.88337
G01 X50.75297 Y40.88175
G01 X50.55868 Y40.92302
G01 X50.38657 Y40.99907
G01 X50.20918 Y41.12795
G01 X50.08370 Y41.26813
G01 X49.98439 Y41.44014
G01 X49.92302 Y41.62902
G01 X49.90227 Y41.82655
G01 X49.90227 Y39.28655
G01 X49.92302 Y39.48406
G01 X49.98439 Y39.67294
G01 X50.08370 Y39.84495
G01 X50.20918 Y39.98513
G01 X50.37725 Y40.10926
G01 X50.54893 Y40.18630
G01 X50.76341 Y40.23189
G01 X50.95157 Y40.23133
G01 X51.14583 Y40.19006
G01 X51.32726 Y40.10926
G01 X51.48794 Y39.99252
G01 X51.62084 Y39.84495
G01 X51.72012 Y39.67294
G01 X51.78149 Y39.48406
G01 X51.80227 Y39.28655
G01 X51.78149 Y39.08902
G01 X51.72012 Y38.90014
G01 X51.62084 Y38.72813
G01 X51.49533 Y38.58795
G01 X51.32726 Y38.46382
G01 X51.15561 Y38.38678
G01 X50.94111 Y38.34119
G01 X50.75297 Y38.34175
G01 X50.55868 Y38.38302
G01 X50.37725 Y38.46382
G01 X50.21660 Y38.58056
G01 X50.08370 Y38.72813
G01 X49.98439 Y38.90014
G01 X49.92302 Y39.08902
G01 X49.90227 Y39.28655
G04 P0 ( dwell for no time -- G64 should not smooth over this point )
G00 Z4.00000 ( retract )

G00 X57.84231 Y41.82655 ( rapid move to begin. )
G01 F50.00000
( Mill infeed pass 1/1 )
G01 Z1.95000
G04 P0 ( dwell for no time -- G64 should not smooth over this point )
G01 F200.00000
G01 X57.84231 Y41.82655
G01 X57.86306 Y41.62902
G01 X57.92070 Y41.44992
G01 X58.03032 Y41.26000
G01 X58.15664 Y41.12056
G01 X58.31732 Y41.00382
G01 X58.49875 Y40.92302
G01 X58.69301 Y40.88175
G01 X58.89161 Y40.88175
G01 X59.08587 Y40.92302
G01 X59.26730 Y41.00382
G01 X59.41985 Y41.11395
G01 X59.56657 Y41.27692
G01 X59.66019 Y41.44014
G01 X59.72318 Y41.63935
G01 X59.74231 Y41.82655
G01 X59.72156 Y42.02406
G01 X59.66019 Y42.21294
G01 X59.56088 Y42.38495
G01 X59.42798 Y42.53252
G01 X59.26730 Y42.64926
G01 X59.08587 Y42.73006
G01 X58.89161 Y42.77133
G01 X58.69301 Y42.77133
G01 X58.49875 Y42.73006
G01 X58.31732 Y42.64926
G01 X58.15664 Y42.53252
G01 X58.02374 Y42.38495
G01 X57.92443 Y42.21294
G01 X57.86306 Y42.02406
G01 X57.84231 Y41.82655
G01 X57.84231 Y44.36655
G01 X57.86306 Y44.16902
G01 X57.92443 Y43.98014
G01 X58.02374 Y43.80813
G01 X58.14925 Y43.66795
G01 X58.31732 Y43.54382
G01 X58.48897 Y43.46678
G01 X58.70347 Y43.42119
G01 X58.89161 Y43.42175
G01 X59.08587 Y43.46302
G01 X59.26730 Y43.54382
G01 X59.42798 Y43.66056
G01 X59.56088 Y43.80813
G01 X59.66019 Y43.98014
G01 X59.72156 Y44.16902
G01 X59.74231 Y44.36655
G01 X59.72156 Y44.56406
G01 X59.66019 Y44.75294
G01 X59.56088 Y44.92495
G01 X59.43537 Y45.06513
G01 X59.26730 Y45.18926
G01 X59.09565 Y45.26630
G01 X58.88115 Y45.31189
G01 X58.69301 Y45.31133
G01 X58.49875 Y45.27006
G01 X58.31732 Y45.18926
G01 X58.15664 Y45.07252
G01 X58.02374 Y44.92495
G01 X57.92443 Y44.75294
G01 X57.86306 Y44.56406
G01 X57.84231 Y44.36655
G01 X57.84231 Y46.90655
G01 X57.86306 Y46.70902
G01 X57.92443 Y46.52012
G01 X58.02374 Y46.34813
G01 X58.14925 Y46.20795
G01 X58.31732 Y46.08382
G01 X58.48897 Y46.00678
G01 X58.70347 Y45.96119
G01 X58.89161 Y45.96175
G01 X59.08587 Y46.00300
G01 X59.26730 Y46.08382
G01 X59.42798 Y46.20053
G01 X59.56088 Y46.34813
G01 X59.66019 Y46.52012
G01 X59.72156 Y46.70902
G01 X59.74231 Y46.90655
G01 X59.72156 Y47.10404
G01 X59.66019 Y47.29294
G01 X59.56088 Y47.46492
G01 X59.43537 Y47.60513
G01 X59.26730 Y47.72926
G01 X59.09565 Y47.80627
G01 X58.88115 Y47.85189
G01 X58.69301 Y47.85130
G01 X58.49875 Y47.81006
G01 X58.31732 Y47.72926
G01 X58.15664 Y47.61252
G01 X58.02374 Y47.46492
G01 X57.92443 Y47.29294
G01 X57.86306 Y47.10404
G01 X57.84231 Y46.90655
G01 X57.84231 Y49.44655
G01 X57.86306 Y49.24902
G01 X57.92443 Y49.06014
G01 X58.02374 Y48.88813
G01 X58.14925 Y48.74795
G01 X58.31732 Y48.62382
G01 X58.48897 Y48.54676
G01 X58.70347 Y48.50119
G01 X58.89161 Y48.50175
G01 X59.08587 Y48.54302
G01 X59.26730 Y48.62382
G01 X59.42798 Y48.74056
G01 X59.56088 Y48.88813
G01 X59.66019 Y49.06014
G01 X59.72156 Y49.24902
G01 X59.74231 Y49.44655
G01 X59.72156 Y49.64406
G01 X59.66019 Y49.83294
G01 X59.56088 Y50.00495
G01 X59.43537 Y50.14508
G01 X59.26730 Y50.26926
G01 X59.09565 Y50.34630
G01 X58.88115 Y50.39186
G01 X58.69301 Y50.39133
G01 X58.49875 Y50.35006
G01 X58.31732 Y50.26926
G01 X58.15664 Y50.15249
G01 X58.02374 Y50.00495
G01 X57.92443 Y49.83294
G01 X57.86306 Y49.64406
G01 X57.84231 Y49.44655
G01 X57.84231 Y51.98655
G01 X57.86306 Y51.78902
G01 X57.92443 Y51.60014
G01 X58.02374 Y51.42813
G01 X58.14925 Y51.28795
G01 X58.31732 Y51.16382
G01 X58.48897 Y51.08678
G01 X58.70347 Y51.04119
G01 X58.89161 Y51.04175
G01 X59.08587 Y51.08302
G01 X59.26730 Y51.16382
G01 X59.42798 Y51.28056
G01 X59.56088 Y51.42813
G01 X59.66019 Y51.60014
G01 X59.72156 Y51.78902
G01 X59.74231 Y51.98655
G01 X59.72156 Y52.18406
G01 X59.66019 Y52.37294
G01 X59.56088 Y52.54495
G01 X59.43537 Y52.68513
G01 X59.26730 Y52.80926
G01 X59.09565 Y52.88630
G01 X58.88115 Y52.93189
G01 X58.69301 Y52.93133
G01 X58.49875 Y52.89006
G01 X58.31732 Y52.80926
G01 X58.15664 Y52.69252
G01 X58.02374 Y52.54495
G01 X57.92443 Y52.37294
G01 X57.86306 Y52.18406
G01 X57.84231 Y51.98655
G01 X57.84231 Y54.52655
G01 X57.86306 Y54.32902
G01 X57.92443 Y54.14014
G01 X58.02374 Y53.96813
G01 X58.14925 Y53.82795
G01 X58.31732 Y53.70382
G01 X58.48897 Y53.62678
G01 X58.70347 Y53.58119
G01 X58.89161 Y53.58175
G01 X59.08587 Y53.62302
G01 X59.26730 Y53.70382
G01 X59.42798 Y53.82056
G01 X59.56088 Y53.96813
G01 X59.66019 Y54.14014
G01 X59.72156 Y54.32902
G01 X59.74231 Y54.52655
G01 X59.72156 Y54.72406
G01 X59.66019 Y54.91294
G01 X59.56088 Y55.08495
G01 X59.43537 Y55.22513
G01 X59.26730 Y55.34926
G01 X59.09565 Y55.42630
G01 X58.88115 Y55.47189
G01 X58.69301 Y55.47133
G01 X58.49875 Y55.43006
G01 X58.31732 Y55.34926
G01 X58.15664 Y55.23252
G01 X58.02374 Y55.08495
G01 X57.92443 Y54.91294
G01 X57.86306 Y54.72406
G01 X57.84231 Y54.52655
G01 X57.84427 Y57.93602
G01 X57.84996 Y57.95479
G01 X57.87162 Y57.98723
G01 X57.90406 Y58.00892
G01 X57.94234 Y58.01651
G01 X59.64233 Y58.01651
G01 X59.68061 Y58.00892
G01 X59.71305 Y57.98723
G01 X59.73474 Y57.95479
G01 X59.74233 Y57.91651
G01 X59.74233 Y56.21652
G01 X59.73474 Y56.17826
G01 X59.71305 Y56.14580
G01 X59.68061 Y56.12414
G01 X59.64233 Y56.11652
G01 X57.94234 Y56.11652
G01 X57.90406 Y56.12414
G01 X57.87162 Y56.14580
G01 X57.84996 Y56.17826
G01 X57.84234 Y56.21652

G04 P0 ( dwell for no time -- G64 should not smooth over this point )
G00 Z10.000000 ( retract )

M5 ( Spindle off. )
G04 P1.000000
M9 ( Coolant off. )
M2 ( Program end. )

