( pcb2gcode 2.5.0 )
( Software-independent Gcode )

G94 ( Millimeters per minute feed rate. )
G21 ( Units == Millimeters. )

G90 ( Absolute coordinates. )
G00 S20000 ( RPM spindle speed. )
G01 F200.00000 ( Feedrate. )


G00 Z12.00000 (Retract to tool change height)
T0
M5      (Spindle stop.)
G04 P1.00000 (Wait for spindle to stop)
(MSG, Change tool bit to mill diameter 0.20000mm)
M0      (Temporary machine stop.)
M3 ( Spindle on clockwise. )
G04 P1.00000 (Wait for spindle to get up to speed)
G04 P0 ( dwell for no time -- G64 should not smooth over this point )
G00 Z10.00000 ( retract )

G00 X3.10190 Y14.56047 ( rapid move to begin. )
G01 F50.00000
( Mill infeed pass 1/1 )
G01 Z1.10000
G04 P0 ( dwell for no time -- G64 should not smooth over this point )
G01 F200.00000
G01 X3.10190 Y14.56047
G01 X3.33436 Y16.99951
G01 X4.05143 Y19.38340
G01 X5.20154 Y21.53620
G01 X6.74182 Y23.41611
G01 X8.63196 Y24.97485
G01 X10.78068 Y26.13157
G01 X13.16124 Y26.85976
G01 X15.60000 Y27.10000
G01 X18.03870 Y26.85976
G01 X20.40999 Y26.13492
G01 X22.55248 Y24.98750
G01 X24.43881 Y23.43881
G01 X25.98750 Y21.55248
G01 X27.13492 Y19.40999
G01 X27.85976 Y17.03870
G01 X28.10000 Y14.60000
G01 X27.85976 Y12.16124
G01 X27.13157 Y9.78068
G01 X25.97485 Y7.63196
G01 X24.41611 Y5.74182
G01 X22.53620 Y4.20154
G01 X20.37436 Y3.04820
G01 X18.06720 Y2.34828
G01 X15.60015 Y2.09997
G01 X13.19088 Y2.33672
G01 X10.81654 Y3.05143
G01 X8.66376 Y4.20154
G01 X6.78378 Y5.74187
G01 X5.20667 Y7.65525
G01 X4.05567 Y9.80755
G01 X3.35212 Y12.11367
G01 X3.10190 Y14.56047
G04 P0 ( dwell for no time -- G64 should not smooth over this point )
G00 Z10.00000 ( retract )

G00 X9.75022 Y19.59300 ( rapid move to begin. )
G01 F50.00000
( Mill infeed pass 1/1 )
G01 Z1.10000
G04 P0 ( dwell for no time -- G64 should not smooth over this point )
G01 F200.00000
G01 X9.75022 Y19.59300
G01 X9.86976 Y19.04461
G01 X10.19165 Y18.60159
G01 X10.67626 Y18.31845
G01 X11.23414 Y18.25688
G01 X11.76881 Y18.42757
G01 X12.18898 Y18.80232
G01 X12.33528 Y19.05574
G01 X12.44974 Y19.60697
G01 X12.32281 Y20.16719
G01 X11.99797 Y20.60773
G01 X11.53625 Y20.87542
G01 X10.96584 Y20.94309
G01 X10.41906 Y20.76541
G01 X10.01100 Y20.39765
G01 X9.87146 Y20.15840
G01 X9.75022 Y19.59300
G01 X4.10241 Y14.59997
G01 X8.30529 Y11.38626
G01 X8.36026 Y11.66309
G01 X8.63173 Y11.89858
G01 X8.85647 Y11.92675
G01 X9.11629 Y11.81969
G01 X9.73788 Y10.77641
G01 X10.33806 Y9.98537
G01 X11.04306 Y9.28802
G01 X11.83955 Y8.69731
G01 X12.71153 Y8.22508
G01 X13.64150 Y7.88083
G01 X14.61082 Y7.67148
G01 X15.59997 Y7.60123
G01 X16.58912 Y7.67148
G01 X17.55841 Y7.88083
G01 X18.48841 Y8.22508
G01 X19.36039 Y8.69731
G01 X20.15688 Y9.28802
G01 X20.86191 Y9.98537
G01 X21.46206 Y10.77641
G01 X22.08710 Y11.82251
G01 X22.27275 Y11.91389
G01 X22.54075 Y11.90892
G01 X22.80359 Y11.71575
G01 X22.89561 Y11.47120
G01 X22.84049 Y11.20081
G01 X22.31060 Y10.24699
G01 X21.62802 Y9.34227
G01 X20.83514 Y8.55233
G01 X19.92785 Y7.87316
G01 X18.92082 Y7.32310
G01 X17.85900 Y6.92681
G01 X16.75150 Y6.68452
G01 X15.56421 Y6.60126
G01 X14.43406 Y6.68660
G01 X13.32736 Y6.93082
G01 X12.26625 Y7.32899
G01 X11.27209 Y7.87316
G01 X10.36480 Y8.55233
G01 X9.56264 Y9.35294
G01 X8.88182 Y10.25858
G01 X8.30529 Y11.38626
G01 X4.10241 Y14.59997
G01 X4.32334 Y16.84304
G01 X4.97759 Y18.99991
G01 X6.04007 Y20.98769
G01 X7.46996 Y22.73000
G01 X9.21228 Y24.15987
G01 X11.20003 Y25.22233
G01 X13.35690 Y25.87663
G01 X15.59997 Y26.09756
G01 X17.84304 Y25.87663
G01 X19.99991 Y25.22233
G01 X21.98769 Y24.15987
G01 X23.73000 Y22.73000
G01 X25.15987 Y20.98769
G01 X26.22233 Y18.99991
G01 X26.87663 Y16.84304
G01 X27.09756 Y14.59997
G01 X26.87663 Y12.35690
G01 X26.22233 Y10.20003
G01 X25.15987 Y8.21228
G01 X23.73000 Y6.46996
G01 X21.98769 Y5.04007
G01 X19.99991 Y3.97759
G01 X17.84304 Y3.32334
G01 X15.59997 Y3.10241
G01 X13.35690 Y3.32334
G01 X11.20003 Y3.97759
G01 X9.21228 Y5.04007
G01 X7.46996 Y6.46996
G01 X6.04007 Y8.21228
G01 X4.97759 Y10.20003
G01 X4.32334 Y12.35690
G01 X4.10241 Y14.59997
G01 X18.75013 Y19.59475
G01 X18.86976 Y19.04461
G01 X19.20202 Y18.59227
G01 X19.68952 Y18.31414
G01 X20.26156 Y18.26174
G01 X20.78091 Y18.43456
G01 X21.18787 Y18.80098
G01 X21.41926 Y19.31421
G01 X21.44984 Y19.60522
G01 X21.33021 Y20.15536
G01 X20.99798 Y20.60773
G01 X20.51045 Y20.88584
G01 X19.96585 Y20.94309
G01 X19.43115 Y20.77240
G01 X19.01210 Y20.39899
G01 X18.78071 Y19.88576
G01 X18.75013 Y19.59475

G04 P0 ( dwell for no time -- G64 should not smooth over this point )
G00 Z12.000000 ( retract )

M5 ( Spindle off. )
G04 P1.000000
M9 ( Coolant off. )
M2 ( Program end. )

