( pcb2gcode 2.5.0 )
( Software-independent Gcode )

G94 ( Millimeters per minute feed rate. )
G21 ( Units == Millimeters. )

G90 ( Absolute coordinates. )
G00 S20000 ( RPM spindle speed. )
G01 F200.00000 ( Feedrate. )


G00 Z12.00000 (Retract to tool change height)
T0
M5      (Spindle stop.)
G04 P1.00000 (Wait for spindle to stop)
(MSG, Change tool bit to mill diameter 0.20000mm)
M0      (Temporary machine stop.)
M3 ( Spindle on clockwise. )
G04 P1.00000 (Wait for spindle to get up to speed)
G04 P0 ( dwell for no time -- G64 should not smooth over this point )
G00 Z10.00000 ( retract )

G00 X37.58581 Y3.97828 ( rapid move to begin. )
G01 F50.00000
( Mill infeed pass 1/1 )
G01 Z1.10000
G04 P0 ( dwell for no time -- G64 should not smooth over this point )
G01 F200.00000
G01 X37.58581 Y3.97828
G01 X37.58721 Y4.67813
G01 X37.70323 Y4.99626
G01 X37.94453 Y5.12847
G01 X38.21136 Y5.13375
G01 X38.38441 Y5.04749
G01 X38.46343 Y5.11633
G01 X38.65911 Y5.09293
G01 X38.73831 Y4.93159
G01 X38.69152 Y3.85072
G01 X38.50570 Y3.77925
G01 X38.35396 Y3.90282
G01 X38.33524 Y4.57790
G01 X38.22419 Y4.68900
G01 X38.03133 Y4.72697
G01 X37.96638 Y3.88684
G01 X37.70908 Y3.79621
G01 X37.58581 Y3.97828
G04 P0 ( dwell for no time -- G64 should not smooth over this point )
G00 Z10.00000 ( retract )

G00 X38.78802 Y4.37838 ( rapid move to begin. )
G01 F50.00000
( Mill infeed pass 1/1 )
G01 Z1.10000
G04 P0 ( dwell for no time -- G64 should not smooth over this point )
G01 F200.00000
G01 X38.78802 Y4.37838
G01 X38.87494 Y4.09309
G01 X39.07430 Y3.88323
G01 X39.29876 Y3.77899
G01 X39.56363 Y3.77909
G01 X39.97298 Y4.07013
G01 X40.07209 Y4.55448
G01 X39.98657 Y4.81864
G01 X39.78733 Y5.02834
G01 X39.56284 Y5.13256
G01 X39.29802 Y5.13246
G01 X38.88870 Y4.84158
G01 X38.78802 Y4.37838
G04 P0 ( dwell for no time -- G64 should not smooth over this point )
G00 Z10.00000 ( retract )

G00 X39.19599 Y4.49019 ( rapid move to begin. )
G01 F50.00000
( Mill infeed pass 1/1 )
G01 Z1.10000
G04 P0 ( dwell for no time -- G64 should not smooth over this point )
G01 F200.00000
G01 X39.19599 Y4.49019
G01 X39.23468 Y4.29532
G01 X39.37791 Y4.18666
G01 X39.54616 Y4.21981
G01 X39.66561 Y4.42136
G01 X39.62693 Y4.61625
G01 X39.48372 Y4.72489
G01 X39.31545 Y4.69174
G01 X39.19599 Y4.49019
G04 P0 ( dwell for no time -- G64 should not smooth over this point )
G00 Z10.00000 ( retract )

G00 X40.12543 Y4.75506 ( rapid move to begin. )
G01 F50.00000
( Mill infeed pass 1/1 )
G01 Z1.10000
G04 P0 ( dwell for no time -- G64 should not smooth over this point )
G01 F200.00000
G01 X40.12543 Y4.75506
G01 X40.18365 Y4.58371
G01 X40.33556 Y4.52862
G01 X40.65365 Y4.73167
G01 X40.89515 Y4.61585
G01 X40.93531 Y4.42187
G01 X40.81377 Y4.21966
G01 X40.64590 Y4.18671
G01 X40.37829 Y4.37658
G01 X40.15118 Y4.28351
G01 X40.14890 Y4.08684
G01 X40.34201 Y3.88638
G01 X40.56556 Y3.77909
G01 X40.83333 Y3.77904
G01 X41.05537 Y3.88361
G01 X41.25339 Y4.09161
G01 X41.34298 Y4.37358
G01 X41.24869 Y4.82555
G01 X40.86297 Y5.12311
G01 X40.50003 Y5.11005
G01 X40.12543 Y4.75506
G04 P0 ( dwell for no time -- G64 should not smooth over this point )
G00 Z10.00000 ( retract )

G00 X42.44016 Y4.58420 ( rapid move to begin. )
G01 F50.00000
( Mill infeed pass 1/1 )
G01 Z1.10000
G04 P0 ( dwell for no time -- G64 should not smooth over this point )
G01 F200.00000
G01 X42.44016 Y4.58420
G01 X42.64140 Y4.79453
G01 X43.88773 Y4.79260
G01 X44.06944 Y4.60165
G01 X43.86822 Y4.39131
G01 X42.62187 Y4.39324
G01 X42.44016 Y4.58420
G04 P0 ( dwell for no time -- G64 should not smooth over this point )
G00 Z10.00000 ( retract )

G00 X45.17454 Y4.01945 ( rapid move to begin. )
G01 F50.00000
( Mill infeed pass 1/1 )
G01 Z1.10000
G04 P0 ( dwell for no time -- G64 should not smooth over this point )
G01 F200.00000
G01 X45.17454 Y4.01945
G01 X45.25092 Y3.82644
G01 X45.36491 Y3.78849
G01 X45.54094 Y3.87246
G01 X45.68996 Y4.25415
G01 X46.14177 Y4.25415
G01 X46.32559 Y3.83012
G01 X46.49524 Y3.77950
G01 X46.63936 Y3.88422
G01 X46.10441 Y5.48089
G01 X45.98208 Y5.60071
G01 X45.73522 Y5.49926
G01 X45.17454 Y4.01945
G04 P0 ( dwell for no time -- G64 should not smooth over this point )
G00 Z10.00000 ( retract )

G00 X45.84396 Y4.65737 ( rapid move to begin. )
G01 F50.00000
( Mill infeed pass 1/1 )
G01 Z1.10000
G04 P0 ( dwell for no time -- G64 should not smooth over this point )
G01 F200.00000
G01 X45.84396 Y4.65737
G01 X45.91543 Y4.84485
G01 X45.98691 Y4.65737
G01 X45.84396 Y4.65737
G04 P0 ( dwell for no time -- G64 should not smooth over this point )
G00 Z10.00000 ( retract )

G00 X46.71076 Y4.30518 ( rapid move to begin. )
G01 F50.00000
( Mill infeed pass 1/1 )
G01 Z1.10000
G04 P0 ( dwell for no time -- G64 should not smooth over this point )
G01 F200.00000
G01 X46.71076 Y4.30518
G01 X46.82602 Y4.05448
G01 X47.22013 Y3.77912
G01 X47.56819 Y3.78227
G01 X47.77819 Y3.88323
G01 X47.95983 Y4.06825
G01 X48.13087 Y4.49014
G01 X48.13138 Y4.89593
G01 X48.04543 Y5.16263
G01 X47.80197 Y5.48577
G01 X47.55432 Y5.61003
G01 X47.20705 Y5.60698
G01 X47.00009 Y5.50568
G01 X46.71353 Y5.10525
G01 X46.78244 Y4.91529
G01 X46.96014 Y4.87538
G01 X47.22821 Y5.16603
G01 X47.46387 Y5.20256
G01 X47.67667 Y4.98587
G01 X47.72831 Y4.55341
G01 X47.63143 Y4.30696
G01 X47.47238 Y4.18521
G01 X47.23006 Y4.22278
G01 X47.14459 Y4.33492
G01 X47.40575 Y4.39593
G01 X47.38846 Y4.66807
G01 X46.91536 Y4.72585
G01 X46.72539 Y4.60287
G01 X46.71076 Y4.30518
G04 P0 ( dwell for no time -- G64 should not smooth over this point )
G00 Z10.00000 ( retract )

G00 X48.19166 Y5.45402 ( rapid move to begin. )
G01 F50.00000
( Mill infeed pass 1/1 )
G01 Z1.10000
G04 P0 ( dwell for no time -- G64 should not smooth over this point )
G01 F200.00000
G01 X48.19166 Y5.45402
G01 X48.74538 Y3.89382
G01 X48.86105 Y3.78847
G01 X48.94459 Y3.79116
G01 X49.11627 Y3.90645
G01 X49.66237 Y5.33901
G01 X49.60143 Y5.54665
G01 X49.50298 Y5.60551
G01 X49.29435 Y5.50017
G01 X48.92810 Y4.54483
G01 X48.54319 Y5.53332
G01 X48.33819 Y5.60665
G01 X48.19166 Y5.45402
G04 P0 ( dwell for no time -- G64 should not smooth over this point )
G00 Z10.00000 ( retract )

G00 X42.07147 Y22.18500 ( rapid move to begin. )
G01 F50.00000
( Mill infeed pass 1/1 )
G01 Z1.10000
G04 P0 ( dwell for no time -- G64 should not smooth over this point )
G01 F200.00000
G01 X42.07147 Y22.18500
G01 X42.07147 Y24.21700
G01 X42.13322 Y24.30938
G01 X44.54051 Y24.31507
G01 X44.61907 Y24.23651
G01 X44.62100 Y23.98274
G01 X47.03697 Y23.98919
G01 X47.13700 Y24.09386
G01 X48.00098 Y24.09386
G01 X48.09338 Y24.03214
G01 X48.10098 Y23.18736
G01 X48.03926 Y23.09498
G01 X47.13700 Y23.08736
G01 X47.03697 Y23.18919
G01 X44.62100 Y23.18274
G01 X44.62100 Y22.18500
G01 X44.55925 Y22.09259
G01 X42.17150 Y22.08497
G01 X42.07147 Y22.18500
G04 P0 ( dwell for no time -- G64 should not smooth over this point )
G00 Z10.00000 ( retract )

G00 X27.52180 Y25.19627 ( rapid move to begin. )
G01 F50.00000
( Mill infeed pass 1/1 )
G01 Z1.10000
G04 P0 ( dwell for no time -- G64 should not smooth over this point )
G01 F200.00000
G01 X27.52180 Y25.19627
G01 X27.52782 Y25.55789
G01 X27.78740 Y26.00808
G01 X28.29924 Y26.24252
G01 X28.83642 Y26.12807
G01 X29.16352 Y25.75990
G01 X37.03946 Y25.74344
G01 X38.53526 Y24.31700
G01 X40.27369 Y24.28769
G01 X40.30107 Y22.29247
G01 X40.20300 Y22.21197
G01 X38.05192 Y22.22884
G01 X38.00747 Y22.31200
G01 X38.00747 Y23.71431
G01 X36.76181 Y24.95998
G01 X29.16345 Y24.95998
G01 X28.83642 Y24.59190
G01 X28.31318 Y24.47697
G01 X27.95446 Y24.58820
G01 X27.67016 Y24.84418
G01 X27.52180 Y25.19627
G01 X27.50465 Y27.89649
G01 X27.58436 Y27.53277
G01 X27.79566 Y27.24290
G01 X28.29924 Y27.01745
G01 X28.83642 Y27.13190
G01 X29.16345 Y27.49998
G01 X34.20814 Y27.49998
G01 X38.52800 Y26.93930
G01 X38.60849 Y26.77229
G01 X39.56269 Y26.79965
G01 X39.59198 Y27.67686
G01 X39.51149 Y27.77496
G01 X38.55330 Y27.74272
G01 X34.28549 Y28.29667
G01 X29.16347 Y28.29997
G01 X28.83642 Y28.66807
G01 X28.29576 Y28.78209
G01 X27.95446 Y28.67178
G01 X27.67618 Y28.42438
G01 X27.50465 Y27.89649
G01 X27.50457 Y29.65260
G01 X27.60460 Y29.55257
G01 X29.19891 Y29.55451
G01 X29.27747 Y29.63307
G01 X29.27940 Y30.04010
G01 X34.56611 Y30.04770
G01 X34.80558 Y30.20012
G01 X34.87154 Y30.45336
G01 X35.01807 Y30.53385
G01 X35.01998 Y31.35986
G01 X34.97555 Y31.44302
G01 X34.00042 Y31.44302
G01 X33.95600 Y30.84000
G01 X29.27940 Y30.84000
G01 X29.27747 Y31.24691
G01 X29.19891 Y31.32547
G01 X27.58507 Y31.32547
G01 X27.50457 Y31.22740
G01 X27.50457 Y29.65260
G04 P0 ( dwell for no time -- G64 should not smooth over this point )
G00 Z10.00000 ( retract )

G00 X27.50457 Y34.73260 ( rapid move to begin. )
G01 F50.00000
( Mill infeed pass 1/1 )
G01 Z1.10000
G04 P0 ( dwell for no time -- G64 should not smooth over this point )
G01 F200.00000
G01 X27.50457 Y34.73260
G01 X27.50457 Y36.30737
G01 X27.60460 Y36.40740
G01 X29.21765 Y36.39978
G01 X29.27747 Y36.32691
G01 X29.27940 Y35.79300
G01 X32.46949 Y35.79300
G01 X32.54998 Y35.92307
G01 X33.39550 Y35.92307
G01 X33.47599 Y35.82498
G01 X33.47406 Y34.94149
G01 X33.37599 Y34.86100
G01 X32.56949 Y34.86100
G01 X32.46949 Y34.99298
G01 X29.27940 Y34.99298
G01 X29.27747 Y34.71307
G01 X29.19891 Y34.63451
G01 X27.54902 Y34.64944
G01 X27.50457 Y34.73260
G01 X27.50483 Y38.06696
G01 X27.57869 Y38.41446
G01 X27.78420 Y38.70392
G01 X28.12449 Y38.90587
G01 X28.51496 Y38.93442
G01 X28.97531 Y38.72769
G01 X29.17028 Y38.45941
G01 X38.40100 Y38.45273
G01 X38.48149 Y38.55268
G01 X39.38448 Y38.55268
G01 X39.46498 Y38.45459
G01 X39.46498 Y37.64809
G01 X39.38448 Y37.55002
G01 X38.50100 Y37.54809
G01 X38.40100 Y37.65274
G01 X29.16322 Y37.65942
G01 X28.83640 Y37.29190
G01 X28.28380 Y37.18030
G01 X27.79566 Y37.40290
G01 X27.58436 Y37.69277
G01 X27.50483 Y38.05301
G01 X27.50557 Y40.61389
G01 X27.66668 Y41.10975
G01 X27.96739 Y41.37701
G01 X28.31318 Y41.48301
G01 X28.82314 Y41.37462
G01 X29.18064 Y40.99134
G01 X44.75100 Y40.99134
G01 X44.85100 Y41.09459
G01 X45.73448 Y41.09268
G01 X45.81498 Y40.99459
G01 X45.81307 Y40.16858
G01 X45.71498 Y40.08809
G01 X44.83149 Y40.09002
G01 X44.75100 Y40.19131
G01 X29.16020 Y40.19131
G01 X28.83612 Y39.83173
G01 X28.29924 Y39.71745
G01 X27.79566 Y39.94290
G01 X27.58436 Y40.23277
G01 X27.50465 Y40.59649
G04 P0 ( dwell for no time -- G64 should not smooth over this point )
G00 Z10.00000 ( retract )

G00 X13.05774 Y24.30214 ( rapid move to begin. )
G01 F50.00000
( Mill infeed pass 1/1 )
G01 Z1.10000
G04 P0 ( dwell for no time -- G64 should not smooth over this point )
G01 F200.00000
G01 X13.05774 Y24.30214
G01 X13.35350 Y23.77288
G01 X13.88987 Y23.53407
G01 X14.46716 Y23.65792
G01 X14.75591 Y23.91804
G01 X14.84118 Y24.07860
G01 X21.10667 Y24.07860
G01 X22.02298 Y23.16229
G01 X22.02298 Y22.18500
G01 X22.09214 Y21.96024
G01 X23.40992 Y20.63237
G01 X23.63049 Y20.51990
G01 X40.98949 Y20.54479
G01 X41.50902 Y21.02115
G01 X41.61814 Y21.28297
G01 X41.61405 Y28.21661
G01 X41.50018 Y28.43843
G01 X40.74445 Y29.15098
G01 X39.59198 Y29.17947
G01 X39.53026 Y29.27587
G01 X39.33300 Y29.28349
G01 X39.33300 Y36.04149
G01 X39.46498 Y36.14149
G01 X39.46498 Y36.94799
G01 X39.38448 Y37.04606
G01 X38.50100 Y37.04799
G01 X38.40290 Y36.96750
G01 X38.40290 Y36.12198
G01 X38.53292 Y36.04149
G01 X38.52800 Y28.37704
G01 X38.61062 Y28.27849
G01 X39.49198 Y28.27699
G01 X39.59198 Y28.38133
G01 X40.42591 Y28.38133
G01 X40.81898 Y27.98829
G01 X40.81898 Y21.46168
G01 X40.67229 Y21.31500
G01 X23.85868 Y21.31500
G01 X22.82300 Y22.35068
G01 X22.82300 Y23.32800
G01 X22.75312 Y23.55370
G01 X21.38439 Y24.86203
G01 X14.84143 Y24.87847
G01 X14.75593 Y25.03966
G01 X14.46716 Y25.29978
G01 X13.88639 Y25.42322
G01 X13.52033 Y25.30486
G01 X13.22490 Y25.04275
G01 X13.06163 Y24.68314
G01 X13.05774 Y24.30214
G01 X13.05926 Y26.94067
G01 X13.34380 Y27.44252
G01 X13.68903 Y27.64768
G01 X14.06757 Y27.69136
G01 X14.56945 Y27.48880
G01 X20.12252 Y33.22613
G01 X34.08798 Y33.25287
G01 X34.08798 Y34.86100
G01 X33.97789 Y34.94149
G01 X33.97789 Y35.84448
G01 X34.07599 Y35.92498
G01 X34.88249 Y35.92498
G01 X34.98249 Y35.82498
G01 X34.98249 Y34.96100
G01 X34.88800 Y34.86153
G01 X34.88800 Y32.96649
G01 X35.01998 Y32.86649
G01 X35.01998 Y32.05999
G01 X34.93948 Y31.96189
G01 X34.01772 Y31.96758
G01 X33.95790 Y32.04048
G01 X33.95600 Y32.45298
G01 X20.43466 Y32.45298
G01 X14.93023 Y26.70965
G01 X14.85413 Y26.35418
G01 X14.61948 Y26.03610
G01 X14.26919 Y25.83968
G01 X13.69231 Y25.84420
G01 X13.34380 Y26.05063
G01 X13.05774 Y26.56985
G01 X13.03922 Y22.18530
G01 X13.12784 Y21.79008
G01 X13.51418 Y21.36605
G01 X14.07278 Y21.24357
G01 X14.61489 Y21.47492
G01 X14.83434 Y21.79006
G01 X16.53718 Y21.79006
G01 X20.23515 Y18.09215
G01 X20.44315 Y17.98209
G01 X49.60097 Y17.97498
G01 X49.84497 Y18.06210
G01 X50.00100 Y18.37533
G01 X49.97189 Y25.24794
G01 X49.67687 Y25.49106
G01 X48.10098 Y25.49800
G01 X48.02048 Y25.59856
G01 X47.63148 Y25.60049
G01 X45.68300 Y27.54902
G01 X45.68300 Y38.58149
G01 X45.81498 Y38.68149
G01 X45.81307 Y39.50750
G01 X45.71498 Y39.58799
G01 X44.83149 Y39.58606
G01 X44.75100 Y39.48799
G01 X44.75290 Y38.66198
G01 X44.88303 Y38.58149
G01 X44.89009 Y27.30848
G01 X45.00015 Y27.10048
G01 X47.03697 Y25.06363
G01 X47.08142 Y24.61083
G01 X48.00098 Y24.59399
G01 X48.10098 Y24.69833
G01 X49.20098 Y24.69833
G01 X49.20098 Y18.77500
G01 X20.68343 Y18.77500
G01 X16.87320 Y22.55040
G01 X14.84115 Y22.58939
G01 X14.75588 Y22.74964
G01 X14.46716 Y23.00971
G01 X13.90381 Y23.13407
G01 X13.52033 Y23.01479
G01 X13.22271 Y22.74997
G01 X13.04014 Y22.20270
G01 X13.03940 Y19.89176
G01 X13.11484 Y19.53220
G01 X13.37041 Y19.18046
G01 X13.70232 Y18.99331
G01 X14.08499 Y18.95364
G01 X14.61385 Y19.18414
G01 X14.86350 Y19.53220
G01 X14.93892 Y19.90571
G01 X14.85398 Y20.29140
G01 X14.61948 Y20.60921
G01 X14.27603 Y20.80415
G01 X13.87613 Y20.84111
G01 X13.36450 Y20.61330
G01 X13.12436 Y20.29140
G01 X13.03940 Y19.89176
G04 P0 ( dwell for no time -- G64 should not smooth over this point )
G00 Z10.00000 ( retract )

G00 X5.76698 Y6.05600 ( rapid move to begin. )
G01 F50.00000
( Mill infeed pass 1/1 )
G01 Z1.10000
G04 P0 ( dwell for no time -- G64 should not smooth over this point )
G01 F200.00000
G01 X5.76698 Y6.05600
G01 X5.93489 Y5.73063
G01 X6.16306 Y5.65600
G01 X19.06370 Y5.53510
G01 X19.31104 Y5.68511
G01 X20.46095 Y7.17998
G01 X27.50457 Y7.17998
G01 X27.50651 Y6.77307
G01 X27.58507 Y6.69451
G01 X29.19891 Y6.69451
G01 X29.27940 Y6.79260
G01 X29.27940 Y8.36740
G01 X29.17937 Y8.46740
G01 X27.58507 Y8.46547
G01 X27.50651 Y8.38691
G01 X27.50457 Y7.97992
G01 X20.19115 Y7.97329
G01 X19.94693 Y7.82387
G01 X18.79852 Y6.33093
G01 X6.56700 Y6.45204
G01 X6.56700 Y21.78551
G01 X9.17690 Y21.78894
G01 X9.26229 Y21.62798
G01 X9.55107 Y21.36786
G01 X10.15856 Y21.25208
G01 X10.66727 Y21.48518
G01 X10.89953 Y21.80885
G01 X10.97880 Y22.19577
G01 X10.89386 Y22.58147
G01 X10.66727 Y22.89239
G01 X10.11266 Y23.13399
G01 X9.55107 Y23.00971
G01 X9.26229 Y22.74959
G01 X9.17698 Y22.58894
G01 X6.15019 Y22.58363
G01 X5.85397 Y22.42879
G01 X5.77129 Y22.21398
G01 X5.76698 Y6.05600
G04 P0 ( dwell for no time -- G64 should not smooth over this point )
G00 Z10.00000 ( retract )

G00 X9.90923 Y9.94395 ( rapid move to begin. )
G01 F50.00000
( Mill infeed pass 1/1 )
G01 Z1.10000
G04 P0 ( dwell for no time -- G64 should not smooth over this point )
G01 F200.00000
G01 X9.90923 Y9.94395
G01 X9.95513 Y10.38058
G01 X10.09079 Y10.79810
G01 X10.31030 Y11.17832
G01 X10.59666 Y11.49716
G01 X10.96857 Y11.76737
G01 X11.36031 Y11.94118
G01 X11.80019 Y12.03300
G01 X12.22874 Y12.03244
G01 X12.65817 Y11.94118
G01 X13.05924 Y11.76262
G01 X13.41441 Y11.50455
G01 X13.70818 Y11.17832
G01 X13.92769 Y10.79810
G01 X14.06335 Y10.38058
G01 X14.10925 Y9.94395
G01 X14.06335 Y9.50735
G01 X13.92769 Y9.08980
G01 X13.70818 Y8.70961
G01 X13.42182 Y8.39074
G01 X13.05924 Y8.12531
G01 X12.66795 Y7.95048
G01 X12.21830 Y7.85490
G01 X11.78972 Y7.85546
G01 X11.36031 Y7.94675
G01 X10.95924 Y8.12531
G01 X10.60408 Y8.38335
G01 X10.31030 Y8.70961
G01 X10.09079 Y9.08980
G01 X9.95513 Y9.50735
G01 X9.90923 Y9.94395
G04 P0 ( dwell for no time -- G64 should not smooth over this point )
G00 Z10.00000 ( retract )

G00 X7.54500 Y13.04141 ( rapid move to begin. )
G01 F50.00000
( Mill infeed pass 1/1 )
G01 Z1.10000
G04 P0 ( dwell for no time -- G64 should not smooth over this point )
G01 F200.00000
G01 X7.54500 Y13.04141
G01 X7.57363 Y18.65041
G01 X7.72217 Y18.83418
G01 X9.09585 Y19.75557
G01 X9.15981 Y20.28190
G01 X9.54248 Y20.71365
G01 X9.92282 Y20.84256
G01 X10.30217 Y20.80657
G01 X10.65937 Y20.60921
G01 X10.90169 Y20.27202
G01 X10.95828 Y19.70121
G01 X10.67553 Y19.20413
G01 X10.12488 Y18.95364
G01 X9.73738 Y18.99463
G01 X9.54517 Y19.09364
G01 X8.34500 Y18.28864
G01 X8.34500 Y13.44095
G01 X19.94559 Y13.43607
G01 X20.16583 Y13.32383
G01 X22.96968 Y10.52000
G01 X27.62053 Y10.52000
G01 X27.94755 Y10.88807
G01 X28.48822 Y11.00209
G01 X28.84161 Y10.88479
G01 X29.11382 Y10.63580
G01 X29.26192 Y10.29066
G01 X29.21077 Y9.78927
G01 X28.83569 Y9.35147
G01 X28.31491 Y9.23705
G01 X27.80866 Y9.45228
G01 X27.61382 Y9.72015
G01 X22.69176 Y9.73659
G01 X19.71767 Y12.64108
G01 X7.82999 Y12.66384
G01 X7.61239 Y12.81875
G01 X7.54500 Y13.04141
G04 P0 ( dwell for no time -- G64 should not smooth over this point )
G00 Z10.00000 ( retract )

G00 X9.07929 Y17.60195 ( rapid move to begin. )
G01 F50.00000
( Mill infeed pass 1/1 )
G01 Z1.10000
G04 P0 ( dwell for no time -- G64 should not smooth over this point )
G01 F200.00000
G01 X9.07929 Y17.60195
G01 X9.16425 Y17.21625
G01 X9.39872 Y16.89845
G01 X9.74220 Y16.70350
G01 X10.12488 Y16.66383
G01 X10.66727 Y16.90531
G01 X10.89953 Y17.22898
G01 X10.97880 Y17.61590
G01 X10.89386 Y18.00159
G01 X10.65937 Y18.31940
G01 X10.31591 Y18.51434
G01 X9.93321 Y18.55402
G01 X9.39082 Y18.31252
G01 X9.15856 Y17.98884
G01 X9.07929 Y17.60195
G04 P0 ( dwell for no time -- G64 should not smooth over this point )
G00 Z10.00000 ( retract )

G00 X11.05947 Y21.03679 ( rapid move to begin. )
G01 F50.00000
( Mill infeed pass 1/1 )
G01 Z1.10000
G04 P0 ( dwell for no time -- G64 should not smooth over this point )
G01 F200.00000
G01 X11.05947 Y21.03679
G01 X11.14443 Y20.65109
G01 X11.37890 Y20.33329
G01 X11.72239 Y20.13832
G01 X12.10506 Y20.09867
G01 X12.64745 Y20.34015
G01 X12.87971 Y20.66382
G01 X12.95899 Y21.05074
G01 X12.87405 Y21.43644
G01 X12.63955 Y21.75424
G01 X12.29610 Y21.94919
G01 X11.91342 Y21.98886
G01 X11.37100 Y21.74736
G01 X11.13875 Y21.42369
G01 X11.05947 Y21.03679
G04 P0 ( dwell for no time -- G64 should not smooth over this point )
G00 Z10.00000 ( retract )

G00 X9.07929 Y24.48583 ( rapid move to begin. )
G01 F50.00000
( Mill infeed pass 1/1 )
G01 Z1.10000
G04 P0 ( dwell for no time -- G64 should not smooth over this point )
G01 F200.00000
G01 X9.07929 Y24.48583
G01 X9.15856 Y24.09894
G01 X9.38835 Y23.77771
G01 X9.72892 Y23.57773
G01 X10.12488 Y23.53377
G01 X10.66727 Y23.77524
G01 X10.89386 Y24.08619
G01 X10.97880 Y24.47189
G01 X10.89953 Y24.85878
G01 X10.66973 Y25.17999
G01 X10.32917 Y25.37996
G01 X9.93321 Y25.42396
G01 X9.39082 Y25.18245
G01 X9.16425 Y24.87153
G01 X9.07929 Y24.48583
G01 X9.07929 Y26.73960
G01 X9.16425 Y26.35390
G01 X9.39872 Y26.03610
G01 X9.74220 Y25.84115
G01 X10.15856 Y25.80986
G01 X10.65373 Y26.03198
G01 X10.89953 Y26.36663
G01 X10.97687 Y26.76736
G01 X10.89386 Y27.13924
G01 X10.67870 Y27.43701
G01 X10.31591 Y27.65199
G01 X9.89953 Y27.68326
G01 X9.39082 Y27.45017
G01 X9.15856 Y27.12649
G01 X9.07929 Y26.73960
G04 P0 ( dwell for no time -- G64 should not smooth over this point )
G00 Z10.00000 ( retract )

G00 X3.09998 Y28.53497 ( rapid move to begin. )
G01 F50.00000
( Mill infeed pass 1/1 )
G01 Z1.10000
G04 P0 ( dwell for no time -- G64 should not smooth over this point )
G01 F200.00000
G01 X3.09998 Y28.53497
G01 X3.17968 Y28.77221
G01 X4.99499 Y30.59568
G01 X5.20015 Y30.70439
G01 X11.62792 Y30.71300
G01 X11.90283 Y30.60302
G01 X12.37887 Y30.08422
G01 X12.40814 Y28.75634
G01 X12.76963 Y28.48219
G01 X12.94042 Y28.09764
G01 X12.87562 Y27.52438
G01 X12.65025 Y27.21313
G01 X12.40910 Y27.06528
G01 X12.40910 Y26.46559
G01 X12.77832 Y26.18159
G01 X12.95924 Y25.62388
G01 X12.77832 Y25.06620
G01 X12.40910 Y24.78218
G01 X12.40910 Y24.18251
G01 X12.65025 Y24.03463
G01 X12.87562 Y23.72340
G01 X12.93849 Y23.13631
G01 X12.64227 Y22.62554
G01 X12.30935 Y22.43270
G01 X11.91342 Y22.38873
G01 X11.37100 Y22.63021
G01 X11.13875 Y22.95391
G01 X11.05929 Y23.33034
G01 X11.24017 Y23.89150
G01 X11.60908 Y24.17539
G01 X11.60908 Y24.78233
G01 X11.24017 Y25.06620
G01 X11.05924 Y25.62388
G01 X11.24017 Y26.18156
G01 X11.60908 Y26.46546
G01 X11.60908 Y27.07239
G01 X11.24017 Y27.35626
G01 X11.05924 Y27.91394
G01 X11.24017 Y28.47163
G01 X11.60898 Y28.75545
G01 X11.60898 Y29.76629
G01 X11.46229 Y29.91298
G01 X5.44368 Y29.91298
G01 X3.90000 Y28.36929
G01 X3.90000 Y5.45968
G01 X6.45968 Y2.90000
G01 X35.10398 Y2.90000
G01 X35.10398 Y12.25998
G01 X29.16345 Y12.25998
G01 X28.81659 Y11.88296
G01 X28.47778 Y11.77697
G01 X28.12111 Y11.81499
G01 X27.67407 Y12.13839
G01 X27.50457 Y12.66000
G01 X27.67318 Y13.18034
G01 X27.99198 Y13.43267
G01 X27.99198 Y15.68903
G01 X18.16939 Y15.69393
G01 X17.94915 Y15.80615
G01 X16.54737 Y17.20790
G01 X14.84090 Y17.20790
G01 X14.75591 Y17.04808
G01 X14.45799 Y16.78293
G01 X14.08151 Y16.66362
G01 X13.70232 Y16.70350
G01 X13.35787 Y16.89921
G01 X13.13585 Y17.22181
G01 X12.92086 Y17.28412
G01 X12.32721 Y17.87061
G01 X12.10687 Y17.80899
G01 X11.71901 Y17.84942
G01 X11.23247 Y18.20893
G01 X11.05924 Y18.75394
G01 X11.23247 Y19.29898
G01 X11.70273 Y19.65221
G01 X12.10158 Y19.69923
G01 X12.47806 Y19.57995
G01 X12.77570 Y19.31513
G01 X12.95827 Y18.76773
G01 X12.89264 Y18.43619
G01 X13.21667 Y18.11216
G01 X13.51443 Y18.43179
G01 X14.08847 Y18.55371
G01 X14.61489 Y18.32278
G01 X14.83450 Y18.00751
G01 X16.84369 Y17.98577
G01 X18.39687 Y16.48890
G01 X28.54059 Y16.46027
G01 X28.72459 Y16.31122
G01 X28.79091 Y16.10366
G01 X28.79200 Y13.43973
G01 X28.99223 Y13.31308
G01 X29.17005 Y13.06000
G01 X35.50400 Y13.06000
G01 X35.72782 Y12.99147
G01 X35.90400 Y12.66000
G01 X35.90400 Y2.50000
G01 X35.83547 Y2.27615
G01 X35.50400 Y2.09998
G01 X6.29400 Y2.09998
G01 X6.05892 Y2.17635
G01 X3.21722 Y5.01107
G01 X3.10709 Y5.21915
G01 X3.09998 Y28.53497
G04 P0 ( dwell for no time -- G64 should not smooth over this point )
G00 Z10.00000 ( retract )

G00 X9.90923 Y34.93374 ( rapid move to begin. )
G01 F50.00000
( Mill infeed pass 1/1 )
G01 Z1.10000
G04 P0 ( dwell for no time -- G64 should not smooth over this point )
G01 F200.00000
G01 X9.90923 Y34.93374
G01 X9.95513 Y34.49714
G01 X10.09079 Y34.07959
G01 X10.31030 Y33.69940
G01 X10.59666 Y33.38053
G01 X10.95924 Y33.11510
G01 X11.35053 Y32.94027
G01 X11.80019 Y32.84469
G01 X12.22874 Y32.84525
G01 X12.65817 Y32.93654
G01 X13.05924 Y33.11510
G01 X13.41441 Y33.37314
G01 X13.70818 Y33.69940
G01 X13.92769 Y34.07959
G01 X14.06335 Y34.49714
G01 X14.10925 Y34.93374
G01 X14.06335 Y35.37037
G01 X13.92769 Y35.78789
G01 X13.70818 Y36.16811
G01 X13.42182 Y36.48695
G01 X13.04992 Y36.75716
G01 X12.65817 Y36.93097
G01 X12.21830 Y37.02279
G01 X11.78972 Y37.02223
G01 X11.36031 Y36.93097
G01 X10.95924 Y36.75241
G01 X10.60408 Y36.49434
G01 X10.31030 Y36.16811
G01 X10.09079 Y35.78789
G01 X9.95513 Y35.37037
G01 X9.90923 Y34.93374

G04 P0 ( dwell for no time -- G64 should not smooth over this point )
G00 Z12.000000 ( retract )

M5 ( Spindle off. )
G04 P1.000000
M9 ( Coolant off. )
M2 ( Program end. )

